[
  {
    "id": 274257471,
    "type": "node",
    "latitude": 43.7652056,
    "longitude": 7.4591818,
    "name": "Vieux village de Roquebrune",
    "tourism": "attraction"
  },
  {
    "id": 324241372,
    "type": "node",
    "latitude": 43.7378451,
    "longitude": 7.2596808,
    "description": "Cascade de Gairaut, ouvrage terminal du canal de la Vésubie",
    "heritage": "3",
    "heritage:operator": "mhs",
    "mhs:inscription_date": "2001-11-28",
    "name": "Cascade de Gairaut",
    "ref:mhs": "PA06000018",
    "source:heritage": "Ministère de la Culture - 2022-01",
    "tourism": "attraction",
    "waterway": "waterfall",
    "wikidata": "Q2940840",
    "wikipedia": "fr:Cascade de Gairaut"
  },
  {
    "id": 441905688,
    "type": "node",
    "latitude": 44.0038255,
    "longitude": 6.8753397,
    "name": "Maison de la Mine",
    "tourism": "museum"
  },
  {
    "id": 471972916,
    "type": "node",
    "latitude": 43.7063695,
    "longitude": 7.2680607,
    "email": "contact@espace-avendre.com",
    "name": "Espace à Vendre",
    "opening_hours": "Tu-Sa 14:00-19:00",
    "phone": "+33 9 80 92 49 23",
    "start_date": "2004",
    "tourism": "gallery",
    "website": "https://www.espace-avendre.com/"
  },
  {
    "id": 577414160,
    "type": "node",
    "latitude": 44.0213675,
    "longitude": 6.9795716,
    "name": "Gorges du Cians",
    "place": "locality",
    "tourism": "attraction"
  },
  {
    "id": 577414296,
    "type": "node",
    "latitude": 44.1170969,
    "longitude": 6.9052108,
    "description": "Formation géologique remarquable",
    "natural": "rock",
    "tourism": "attraction"
  },
  {
    "id": 577414311,
    "type": "node",
    "latitude": 44.0353726,
    "longitude": 6.9777427,
    "name": "Gorges du Cians",
    "place": "locality",
    "tourism": "attraction"
  },
  {
    "id": 577414330,
    "type": "node",
    "latitude": 44.0494283,
    "longitude": 6.9778027,
    "name": "Gorges du Cians",
    "place": "locality",
    "tourism": "attraction"
  },
  {
    "id": 578013586,
    "type": "node",
    "latitude": 43.6959074,
    "longitude": 7.2795592,
    "name": "Cascade",
    "name:fr": "Cascade",
    "name:ru": "Водопад Cascade",
    "tourism": "attraction",
    "waterway": "waterfall",
    "wheelchair": "yes"
  },
  {
    "id": 578023554,
    "type": "node",
    "latitude": 43.6976417,
    "longitude": 7.2772555,
    "fee": "yes",
    "name": "Palais Lascaris",
    "opening_hours": "We-Mo 10:00-18:00",
    "phone": "+33 4 93 62 72 40",
    "ref:FR:museofile": "M0887",
    "source": "Ministère de la Culture - Muséofile - 09/2019",
    "tourism": "museum",
    "website": "https://www.nice.fr/fr/culture/musees-et-galeries/agenda-du-palais-lascaris",
    "wheelchair": "no",
    "wikidata": "Q3360882",
    "wikipedia": "fr:Palais Lascaris"
  },
  {
    "id": 769232481,
    "type": "node",
    "latitude": 44.0902585,
    "longitude": 7.5923772,
    "fee": "no",
    "name": "Musée des Merveilles",
    "phone": "+33 4 89 04 57 00",
    "ref:FR:museofile": "M0891",
    "source": "Ministère de la Culture - Muséofile - 09/2019",
    "tourism": "museum",
    "website": "http://www.museedesmerveilles.com",
    "wikidata": "Q15260437"
  },
  {
    "id": 1268201093,
    "type": "node",
    "latitude": 43.783588,
    "longitude": 7.2764749,
    "fee": "no",
    "name": "Château-Musée d'Histoire naturelle",
    "opening_hours": "Tu-Su 14:00-17:30",
    "tourism": "museum"
  },
  {
    "id": 1297270381,
    "type": "node",
    "latitude": 43.7017095,
    "longitude": 7.310623,
    "fee": "no",
    "name": "Musée Volti",
    "official_name": "Musée d'Art et d'Histoire",
    "phone": "+33 4 93 76 33 27",
    "ref:FR:museofile": "M0893",
    "source": "Ministère de la Culture - Muséofile - 09/2019",
    "tourism": "museum",
    "website": "https://villefranche-sur-mer.fr/volti/"
  },
  {
    "id": 1313616532,
    "type": "node",
    "latitude": 44.0626699,
    "longitude": 7.1172788,
    "alt_name": "Fort de la Frassinea",
    "name": "Fort de la Fressinea, bloc 2",
    "tourism": "attraction"
  },
  {
    "id": 1398474011,
    "type": "node",
    "latitude": 43.7017759,
    "longitude": 7.2795802,
    "description": "Billet permettant l'accès au groupe de musée Sciences comprenant : Musée d'archéologie (sites de Cimiez et de Terra Amata) et Muséum d'Histoire Naturelle. Validité 48h.",
    "ele": "252",
    "email": "museum.histoire-naturelle@ville-nice.fr",
    "fax": "+33497134685",
    "fee": "yes",
    "name": "Museum d'Histoire Naturelle",
    "opening_hours": "Tu-Su 10:00-18:00",
    "operator": "Ville de Nice",
    "phone": "+33 4 97 13 46 80",
    "ref:FR:museofile": "M7050",
    "start_date": "1846",
    "tourism": "museum",
    "website": "http://www.mhnnice.org",
    "wheelchair": "no",
    "wikidata": "Q3330894",
    "wikipedia": "fr:Muséum d'histoire naturelle de Nice"
  },
  {
    "id": 1658019663,
    "type": "node",
    "latitude": 43.7867037,
    "longitude": 7.4435887,
    "denotation": "natural_monument",
    "genus": "Ulmus",
    "historic": "yes",
    "leaf_cycle": "deciduous",
    "leaf_type": "broadleaved",
    "name": "L'Orme de Gorbio",
    "natural": "tree",
    "source": "cadastre-dgi-fr source : Direction Générale des Impôts - Cadastre. Mise à jour : 2012",
    "start_date": "1713",
    "tourism": "attraction",
    "website": "https://www.gorbio.fr/lorme",
    "wikimedia_commons": "File:Gorbio (l'orme1).jpg"
  },
  {
    "id": 1675963243,
    "type": "node",
    "latitude": 44.115866,
    "longitude": 6.90593,
    "name": "Lavoir",
    "tourism": "attraction"
  },
  {
    "id": 1682414861,
    "type": "node",
    "latitude": 44.0459199,
    "longitude": 6.8443946,
    "name": "Gorges de Daluis",
    "place": "locality",
    "tourism": "attraction"
  },
  {
    "id": 1682517042,
    "type": "node",
    "latitude": 44.3336493,
    "longitude": 6.8652675,
    "ele": "2271",
    "name": "Camp des Fourches",
    "place": "locality",
    "source": "cadastre-dgi-fr source : Direction Générale des Impôts - Cadastre. Mise à jour : 2012",
    "tourism": "attraction",
    "wikidata": "Q2935288",
    "wikipedia": "fr:Camp des Fourches"
  },
  {
    "id": 1794339187,
    "type": "node",
    "latitude": 43.8833592,
    "longitude": 7.3617469,
    "historic": "monument"
  },
  {
    "id": 1800277118,
    "type": "node",
    "latitude": 43.8834835,
    "longitude": 7.3615857,
    "name": "Musée des Vieux-Outils",
    "tourism": "museum"
  },
  {
    "id": 1800277128,
    "type": "node",
    "latitude": 43.884019,
    "longitude": 7.3606186,
    "name": "Musée de La Crèche",
    "tourism": "museum"
  },
  {
    "id": 1817547327,
    "type": "node",
    "latitude": 44.3206099,
    "longitude": 6.9395245,
    "name": "Arc de Tortisse",
    "natural": "arch",
    "tourism": "attraction"
  },
  {
    "id": 1837011704,
    "type": "node",
    "latitude": 43.7747355,
    "longitude": 7.5057931,
    "name": "Musée Jean Cocteau - Collection Severin Wunderman",
    "tourism": "museum",
    "website": "https://museecocteaumenton.fr",
    "wheelchair": "yes",
    "wikidata": "Q3329214"
  },
  {
    "id": 1977355299,
    "type": "node",
    "latitude": 44.0443654,
    "longitude": 6.9772975,
    "name": "Grande Clue",
    "natural": "gorge",
    "tourism": "attraction"
  },
  {
    "id": 1977355300,
    "type": "node",
    "latitude": 44.0312865,
    "longitude": 6.9764916,
    "name": "Petite Clue",
    "natural": "gorge",
    "tourism": "attraction"
  },
  {
    "id": 2171574655,
    "type": "node",
    "latitude": 44.0646888,
    "longitude": 7.6306969,
    "name": "Pont du Coq",
    "tourism": "attraction"
  },
  {
    "id": 2184426664,
    "type": "node",
    "latitude": 43.9462304,
    "longitude": 7.516946,
    "addr:city": "Breil sur Roya",
    "addr:housenumber": "25",
    "addr:postcode": "06540",
    "addr:street": "Rue Paul Séjourné",
    "fee": "yes",
    "museum": "railway",
    "name": "Écomusée du Haut-pays et des Transports",
    "opening_hours": "May-Sep: Tu-Su 13:30-17:30",
    "tourism": "museum",
    "website": "http://www.ecomusee-breil.fr",
    "wheelchair": "limited",
    "wikidata": "Q3578611",
    "wikipedia": "fr:Écomusée du haut-pays et des transports"
  },
  {
    "id": 2264574277,
    "type": "node",
    "latitude": 43.7016417,
    "longitude": 7.3106329,
    "fee": "no",
    "name": "Musée Goetz-Boumeester",
    "official_name": "Musée d'Art et d'Histoire",
    "phone": "+33 4 93 76 33 27",
    "ref:FR:museofile": "M0893",
    "source": "Ministère de la Culture - Muséofile - 09/2019",
    "tourism": "museum",
    "website": "https://villefranche-sur-mer.fr/goetz-boumeester/"
  },
  {
    "id": 2264574278,
    "type": "node",
    "latitude": 43.701601,
    "longitude": 7.3106059,
    "fee": "no",
    "name": "Salle Souvenir du 24e BCA",
    "official_name": "Musée d'Art et d'Histoire",
    "phone": "+33 4 93 76 33 27",
    "ref:FR:museofile": "M0893",
    "source": "Ministère de la Culture - Muséofile - 09/2019",
    "tourism": "museum",
    "website": "https://villefranche-sur-mer.fr/24-eme-bca/"
  },
  {
    "id": 2264574279,
    "type": "node",
    "latitude": 43.7011297,
    "longitude": 7.3109172,
    "fee": "no",
    "name": "Collection Roux",
    "official_name": "Musée d'Art et d'Histoire",
    "phone": "+33 4 93 76 33 27",
    "ref:FR:museofile": "M0893",
    "source": "Ministère de la Culture - Muséofile - 09/2019",
    "tourism": "museum",
    "website": "https://villefranche-sur-mer.fr/"
  },
  {
    "id": 2279265380,
    "type": "node",
    "latitude": 43.7023621,
    "longitude": 7.3122689,
    "fee": "no",
    "name": "Musée de la Marine",
    "tourism": "museum",
    "url": "https://www.musee-marine.fr/"
  },
  {
    "id": 2423125062,
    "type": "node",
    "latitude": 43.7643265,
    "longitude": 7.4633042,
    "circumference": "16",
    "denotation": "natural_monument",
    "height": "13",
    "leaf_type": "broadleaved",
    "name": "Olivier Millénaire de Roquebrune-Cap-Martin",
    "natural": "tree",
    "species": "Olea europaea",
    "species:fr": "Olivier",
    "species:wikidata": "Q37083",
    "species:wikipedia": "fr:Olea europaea",
    "start_date": "~C1",
    "tourism": "attraction",
    "wheelchair": "yes",
    "wikidata": "Q16509810",
    "wikipedia": "fr:Olivier millénaire de Roquebrune-Cap-Martin"
  },
  {
    "id": 2449315048,
    "type": "node",
    "latitude": 43.8417836,
    "longitude": 7.1858498,
    "addr:city": "Gilette",
    "addr:country": "FR",
    "addr:housenumber": "3250",
    "addr:postcode": "06830",
    "addr:street": "Route de Gilette",
    "name": "Musée Lou Ferouil",
    "opening_hours": "Tu-Su 10:00-17:30",
    "tourism": "museum",
    "website": "http://www.louferouil.fr"
  },
  {
    "id": 2769480916,
    "type": "node",
    "latitude": 43.7333992,
    "longitude": 7.3892653,
    "historic": "monument"
  },
  {
    "id": 2881409864,
    "type": "node",
    "latitude": 43.8719582,
    "longitude": 6.9647759,
    "addr:city": "Sigale",
    "addr:postcode": "06910",
    "addr:street": "Rue de la Baragne",
    "name": "Lou temp passat",
    "note": "ouverture sur réservation seulement",
    "operator": "mairie",
    "phone": "+33 4 93 05 83 52",
    "tourism": "museum"
  },
  {
    "id": 3088441877,
    "type": "node",
    "latitude": 44.0154166,
    "longitude": 7.3210963,
    "name": "Musée du Lait",
    "tourism": "museum"
  },
  {
    "id": 3143891747,
    "type": "node",
    "latitude": 43.8736396,
    "longitude": 7.0065115,
    "name": "Ancien moulin à huile",
    "operator": "Mairie de Roquestéron",
    "tourism": "museum"
  },
  {
    "id": 4009357413,
    "type": "node",
    "latitude": 44.0622472,
    "longitude": 7.617239,
    "historic": "monument",
    "name": "Rue du Ghetto"
  },
  {
    "id": 4455258194,
    "type": "node",
    "latitude": 43.7435708,
    "longitude": 7.4258258,
    "tourism": "attraction"
  },
  {
    "id": 4688828348,
    "type": "node",
    "latitude": 43.7062629,
    "longitude": 7.1923789,
    "addr:place": "Stade Allianz Riviera, Boulevard des Jardiniers",
    "addr:postcode": "06200",
    "description": "Présentation des sports et de leur patrimoine respectif",
    "name": "Musée National du Sport",
    "opening_hours": "May-Oct Tu-Su,PH 10:00-18:00; Nov-Apr Tu-Su,PH 11:00-17:00",
    "operator": "Ville de Nice",
    "phone": "+33 4 89 22 44 00",
    "ref:FR:museofile": "M5027",
    "source": "Survey 2017",
    "start_date": "2014-10-15",
    "tourism": "museum",
    "website": "https://www.museedusport.fr/",
    "wheelchair": "yes",
    "wikidata": "Q3330734",
    "wikipedia": "fr:Musée national du Sport"
  },
  {
    "id": 4688883802,
    "type": "node",
    "latitude": 43.6959151,
    "longitude": 7.2745989,
    "alt_name": "Théâtre de la Photographie et de l’Image Charles Nègre",
    "fee": "yes",
    "level": "2",
    "name": "Musée de la photographie Charles Nègre",
    "opening_hours": "Tu-Su 10:00-18:00",
    "operator": "Ville de Nice",
    "phone": "+33 4 97 13 42 20",
    "toilets:wheelchair": "yes",
    "tourism": "museum",
    "website": "https://museephotographie.nice.fr/",
    "wheelchair": "yes",
    "wikidata": "Q106963760"
  },
  {
    "id": 4689017366,
    "type": "node",
    "latitude": 43.7201242,
    "longitude": 7.2789108,
    "addr:city": "Nice",
    "addr:postcode": "06000",
    "addr:street": "Place Jean-Paul II Pape",
    "description": "Le musée évoque notamment la vie franciscaine à Nice du XIIIe à nos jours. Nombreux documents et œuvres d’art.",
    "ele": "250",
    "level": "1",
    "name": "Musée Franciscain",
    "opening_hours": "10:00-12:00,15:00-18:00; Su off",
    "phone": "+334 93 81 00 04",
    "source": "Survey 2017",
    "tourism": "museum",
    "website": "https://www.nicerendezvous.com/musee-franciscain.html",
    "wheelchair": "yes",
    "wikidata": "Q3320265",
    "wikipedia": "fr:Monastère de Cimiez"
  },
  {
    "id": 4717123561,
    "type": "node",
    "latitude": 43.6958396,
    "longitude": 7.2720635,
    "artwork_type": "sculpture",
    "fee": "no",
    "name": "Galerie Dominicains",
    "toilets:wheelchair": "no",
    "tourism": "gallery",
    "wheelchair": "yes"
  },
  {
    "id": 4779920347,
    "type": "node",
    "latitude": 44.0538552,
    "longitude": 6.8495297,
    "name": "Cascade d'Amen",
    "tourism": "attraction",
    "waterway": "waterfall"
  },
  {
    "id": 5108175134,
    "type": "node",
    "latitude": 43.9235695,
    "longitude": 7.4379101,
    "name": "Restes de canon",
    "name:en": "War cannon remains",
    "tourism": "attraction"
  },
  {
    "id": 5108227622,
    "type": "node",
    "latitude": 43.9302142,
    "longitude": 7.4383854,
    "ele": "1480",
    "name": "Ancien Canon",
    "name:en": "War cannon",
    "tourism": "attraction"
  },
  {
    "id": 5417363621,
    "type": "node",
    "latitude": 44.0648632,
    "longitude": 7.1997373,
    "addr:housenumber": "01",
    "addr:postcode": "06420",
    "addr:street": "Le Serret",
    "email": "anesdeblore@gmail.com",
    "name": "Ânes de Blore - Donkey trekking",
    "name:en": "Donkey Trekking",
    "opening_hours": "Mo-Su 09:00-17:00",
    "phone": "+33 6 88 47 19 70",
    "tourism": "attraction",
    "website": "http://www.anesdeblore.fr"
  },
  {
    "id": 5436112400,
    "type": "node",
    "latitude": 43.7530571,
    "longitude": 7.3816632,
    "name": "salle-don-jacques-fighiera",
    "tourism": "museum",
    "wheelchair": "yes"
  },
  {
    "id": 6559098085,
    "type": "node",
    "latitude": 43.710474,
    "longitude": 7.2278853,
    "addr:housenumber": "318",
    "addr:postcode": "06000",
    "addr:street": "Boulevard de la Madeleine",
    "name": "Moulin à Huile d’olive Nicolas Alziari",
    "opening_hours": "Mo-Fr 09:00-12:30, 14:00-18:00",
    "phone": "+33493444512",
    "tourism": "attraction",
    "website": "https://alziari.com.fr/"
  },
  {
    "id": 6580023945,
    "type": "node",
    "latitude": 43.9560318,
    "longitude": 6.8933128,
    "tourism": "gallery"
  },
  {
    "id": 6819896085,
    "type": "node",
    "latitude": 43.6835311,
    "longitude": 7.2041031,
    "name": "Enq",
    "tourism": "attraction"
  },
  {
    "id": 7399432632,
    "type": "node",
    "latitude": 44.0879955,
    "longitude": 7.5944668,
    "addr:city": "Tende",
    "addr:housenumber": "7",
    "addr:postcode": "06430",
    "addr:street": "Place du Lieutenant Kalc",
    "museum": "agriculture",
    "name": "La Maison du Miel et de l'Abeille",
    "phone": "+33 4 93 04 76 22",
    "subject": "beekeeping",
    "tourism": "museum",
    "website": "https://www.tendemerveilles.com/decouverte-art-histoire-traditions/la-maison-du-miel-et-de-l-abeille.html"
  },
  {
    "id": 7743402485,
    "type": "node",
    "latitude": 43.9647525,
    "longitude": 7.311318,
    "addr:street": "M273",
    "alt_name": "Trou de l'Eléphant",
    "name": "Laune de l'Eléphant",
    "tourism": "attraction"
  },
  {
    "id": 7778331620,
    "type": "node",
    "latitude": 43.7769798,
    "longitude": 7.5062039,
    "fee": "no",
    "name": "Said Berkane",
    "tourism": "gallery"
  },
  {
    "id": 7794522585,
    "type": "node",
    "latitude": 43.8864329,
    "longitude": 7.0203535,
    "name": "Forge",
    "name:en": "Isnard's Forge",
    "name:fr": "Forge Isnard",
    "tourism": "museum"
  },
  {
    "id": 7803311289,
    "type": "node",
    "latitude": 43.9874403,
    "longitude": 7.5528165,
    "amenity": "baking_oven",
    "name": "Four Communal",
    "tourism": "attraction"
  },
  {
    "id": 8244546917,
    "type": "node",
    "latitude": 43.8568082,
    "longitude": 7.3794129,
    "name": "Cascade",
    "tourism": "attraction"
  },
  {
    "id": 8931089751,
    "type": "node",
    "latitude": 43.8742875,
    "longitude": 7.4424232,
    "addr:city": "Sospel",
    "addr:street": "D 2204",
    "name": "Musée Fort Saint-Roch",
    "opening_hours": "Tu-Su 13:30-18:00",
    "phone": "+33 4 93 04 14 41",
    "tourism": "museum",
    "website": "http://www.sospel-tourisme.com/patrimoine-fortifie.html"
  },
  {
    "id": 9199223917,
    "type": "node",
    "latitude": 43.889699,
    "longitude": 7.3030569,
    "name": "Figas Peintures",
    "name:en": "Figas paintings",
    "name:fr": "Figas Peintures 0667156685",
    "opening_hours": "Sa-Su 14:30-17:30",
    "phone": "+33 4 93 55 57 51",
    "tourism": "museum"
  },
  {
    "id": 9233681805,
    "type": "node",
    "latitude": 43.7635979,
    "longitude": 7.4191097,
    "man_made": "insect_hotel",
    "tourism": "attraction"
  },
  {
    "id": 9514525398,
    "type": "node",
    "latitude": 43.7861833,
    "longitude": 7.4453562,
    "name": "Tour Lascaris",
    "tourism": "museum",
    "url": "https://www.gorbio.fr/",
    "website": "https://www.gorbio.fr/exposition-estivale-au-musee-chateau-lascaris/"
  },
  {
    "id": 9813942941,
    "type": "node",
    "latitude": 43.9838054,
    "longitude": 7.4375035,
    "historic": "tank",
    "model": "Stuart M5",
    "tourism": "attraction",
    "war_memorial": "yes"
  },
  {
    "id": 9939039073,
    "type": "node",
    "latitude": 43.9955155,
    "longitude": 7.1483369,
    "operator": "Ville de Clans",
    "tourism": "gallery"
  },
  {
    "id": 9990326680,
    "type": "node",
    "latitude": 44.113104,
    "longitude": 7.2948172,
    "fee": "no",
    "name": "Exposition",
    "tourism": "gallery"
  },
  {
    "id": 10033962818,
    "type": "node",
    "latitude": 43.6880754,
    "longitude": 7.2941626,
    "name": "Coco Beach",
    "tourism": "attraction"
  },
  {
    "id": 10106819239,
    "type": "node",
    "latitude": 43.6977993,
    "longitude": 7.2892892,
    "description": "Le musée de Terra Amata conserve, à l’emplacement même du site, les vestiges laissés par des Homo erectus niçois, il y a 400 000 ans. Rénovation en 2016",
    "fee": "yes",
    "name": "Musée Terra Amata",
    "official_name": "Musée de paléontologie de Terra Amata",
    "opening_hours": "Jan 01 off; Oct 16-Jun 22 11:00-18:00; Jun 23-Oct 15 10:00-18:00",
    "operator": "Ville de Nice",
    "phone": "+33 4 93 55 59 93",
    "ref:FR:museofile": "M0885",
    "start_date": "1976-09-17",
    "tourism": "museum",
    "website": "https://www.musee-terra-amata.org/",
    "wikidata": "Q3330096",
    "wikipedia": "fr:Musée de paléontologie humaine de Terra-Amata"
  },
  {
    "id": 10156448673,
    "type": "node",
    "latitude": 43.6959136,
    "longitude": 7.2734822,
    "name": "Saleya Gallery",
    "tourism": "gallery",
    "wheelchair": "no"
  },
  {
    "id": 10262608979,
    "type": "node",
    "latitude": 44.0882834,
    "longitude": 7.5930039,
    "name": "Musée Art Populaire",
    "source": "https://www.openstreetmap.org/note/2950884",
    "tourism": "museum"
  },
  {
    "id": 10670508227,
    "type": "node",
    "latitude": 43.6963567,
    "longitude": 7.276494,
    "fee": "no",
    "name": "Iris Galerie",
    "toilets:wheelchair": "no",
    "tourism": "gallery",
    "wheelchair": "limited"
  },
  {
    "id": 11017955721,
    "type": "node",
    "latitude": 43.6976706,
    "longitude": 7.2776706,
    "name": "Galerie Michel Jarry",
    "tourism": "gallery"
  },
  {
    "id": 11077306642,
    "type": "node",
    "latitude": 43.8782306,
    "longitude": 7.4491783,
    "fee": "no",
    "name": "Atelier habana",
    "tourism": "gallery",
    "wheelchair": "no"
  },
  {
    "id": 12096621255,
    "type": "node",
    "latitude": 43.668023,
    "longitude": 7.2133862,
    "addr:city": "Nice",
    "addr:housenumber": "455",
    "addr:postcode": "06200",
    "addr:street": "Promenade des Anglais",
    "email": "resistance.azur@gmail.com",
    "museum": "history",
    "name": "Musée de la résistance azuréene",
    "opening_hours": "Mo-Fr 14:00-16:30",
    "phone": "+33493811596",
    "tourism": "museum"
  },
  {
    "id": 12149807740,
    "type": "node",
    "latitude": 44.2286388,
    "longitude": 6.9428511,
    "name": "Vertige d'Auron",
    "tourism": "attraction"
  },
  {
    "id": 12423005364,
    "type": "node",
    "latitude": 44.3048452,
    "longitude": 6.9033879,
    "name": "Le Pont de Vens",
    "tourism": "attraction"
  },
  {
    "id": 12436975260,
    "type": "node",
    "latitude": 44.0812487,
    "longitude": 6.9300983,
    "name": "Arbre Bleu",
    "tourism": "attraction"
  },
  {
    "id": 12531734486,
    "type": "node",
    "latitude": 43.7599295,
    "longitude": 7.4631207,
    "charge": "10 EUR",
    "fee": "yes",
    "name": "Villa E1027",
    "opening_hours": "Apr-Nov",
    "tourism": "museum",
    "website": "https://capmoderne.monuments-nationaux.fr/visiter/informations-pratiques"
  }
]