[
  {
    "id": 239813123,
    "type": "node",
    "latitude": 48.5791319,
    "longitude": 7.7506043,
    "addr:housenumber": "23",
    "addr:street": "Quai Saint-Nicolas",
    "check_date": "2022-09-26",
    "fee": "yes",
    "name": "Musée Alsacien",
    "name:de": "Elsässisches Museum",
    "name:zh": "阿尔萨斯博物馆",
    "opening_hours": "Mo-Fr 10:00-13:00,14:00-18:00; Sa,Su 10:00-18:00",
    "phone": "+33 3 88 52 50 00",
    "ref:FR:museofile": "M0014",
    "source": "cadastre-dgi-fr source : Direction Générale des Impôts - Cadastre ; mise à jour : 2009",
    "tourism": "museum",
    "website": "https://www.musees.strasbourg.eu/musee-alsacien",
    "wheelchair": "no",
    "wikidata": "Q565125",
    "wikipedia": "fr:Musée alsacien"
  },
  {
    "id": 239825772,
    "type": "node",
    "latitude": 48.5808521,
    "longitude": 7.7525857,
    "addr:housenumber": "2",
    "addr:street": "Place du Château",
    "contact:housenumber": "2",
    "contact:street": "Place du Château",
    "fee": "yes",
    "name": "Musée archéologique",
    "name:de": "Archäologisches Museum",
    "opening_hours": "Mo, We-Fr 10:00-13:00, 14:00-18:00; Sa-Su 10:00-18:00",
    "phone": "+33 3 68 98 50 00",
    "ref:FR:museofile": "M0015",
    "source": "cadastre-dgi-fr source : Direction Générale des Impôts - Cadastre;mise à jour : 2009",
    "tourism": "museum",
    "website": "https://www.musees.strasbourg.eu/musee-archeologique",
    "wikidata": "Q782003",
    "wikipedia": "fr:Musée archéologique de Strasbourg"
  },
  {
    "id": 239825781,
    "type": "node",
    "latitude": 48.5807532,
    "longitude": 7.7523558,
    "addr:housenumber": "2",
    "addr:street": "Place du Château",
    "contact:housenumber": "2",
    "contact:street": "Place du Château",
    "fee": "yes",
    "name": "Musée des arts décoratifs",
    "name:de": "Kunstgewerbemuseum",
    "opening_hours": "Mo, We-Fr 10:00-13:00, 14:00-18:00; Sa-Su 10:00-18:00",
    "phone": "+33 3 68 98 50 00",
    "source": "cadastre-dgi-fr source : Direction Générale des Impôts - Cadastre;mise à jour : 2009",
    "tourism": "museum",
    "website": "https://www.musees.strasbourg.eu/web/musees/musee-des-arts-decoratifs",
    "wikidata": "Q1955722",
    "wikipedia": "fr:Musée des arts décoratifs de Strasbourg"
  },
  {
    "id": 239830896,
    "type": "node",
    "latitude": 48.5806606,
    "longitude": 7.7521404,
    "addr:housenumber": "2",
    "addr:street": "Place du Château",
    "contact:housenumber": "2",
    "contact:street": "Place du Château",
    "fee": "yes",
    "name": "Musée des Beaux-Arts",
    "name:de": "Museum der Schönen Künste",
    "opening_hours": "Mo, We-Fr 10:00-13:00, 14:00-18:00; Sa-Su 10:00-18:00",
    "phone": "+33 3 68 98 50 00",
    "source": "Direction Générale des Finances Publiques - Cadastre. Mise à jour : 2009",
    "tourism": "museum",
    "website": "https://www.musees.strasbourg.eu/web/musees/musee-des-beaux-arts",
    "wikidata": "Q1535963",
    "wikipedia": "fr:Musée des beaux-arts de Strasbourg"
  },
  {
    "id": 288182142,
    "type": "node",
    "latitude": 48.5858971,
    "longitude": 7.7533677,
    "historic": "monument",
    "image": "https://fr.wikipedia.org/wiki/Fichier:Strasbourg-Lezay_Marn%C3%A9sia.jpg",
    "name": "Monument Lezay-Marnésia",
    "source": "cadastre-dgi-fr source : Direction Générale des Impôts - Cadastre;mise à jour : 2009",
    "wikidata": "Q62082054",
    "wikimedia_commons": "File:Strasbourg-Lezay Marnésia.jpg"
  },
  {
    "id": 288692147,
    "type": "node",
    "latitude": 48.5874847,
    "longitude": 7.7309105,
    "description": "Élément du système de fortification allemande de Strasbourg datant du 19e siècle",
    "historic": "monument",
    "name": "Kriegstor",
    "source": "cadastre-dgi-fr source : Direction Générale des Impôts - Cadastre ; mise à jour : 2009"
  },
  {
    "id": 288920587,
    "type": "node",
    "latitude": 48.5918856,
    "longitude": 7.7322158,
    "historic": "monument",
    "name": "Mémorial pour les \"Malgré-Nous\"",
    "noexit": "yes",
    "source": "cadastre-dgi-fr source : Direction Générale des Impôts - Cadastre ; mise à jour : 2009"
  },
  {
    "id": 322484512,
    "type": "node",
    "latitude": 48.6405408,
    "longitude": 7.7563927,
    "heritage": "3",
    "heritage:operator": "mhs",
    "historic": "monument",
    "mhs:inscription_date": "2001-08-23",
    "name": "Fort Rapp - Moltke",
    "ref:mhs": "PA67000049",
    "source:heritage": "Ministère de la Culture - 07/2018"
  },
  {
    "id": 474817476,
    "type": "node",
    "latitude": 48.5855237,
    "longitude": 7.751432,
    "historic": "monument",
    "man_made": "obelisk",
    "name": "Général Leclerc",
    "source": "cadastre-dgi-fr source : Direction Générale des Impôts - Cadastre;mise à jour : 2009",
    "subject:wikidata": "Q312391",
    "wikipedia": "fr:Philippe Leclerc de Hauteclocque"
  },
  {
    "id": 1207947957,
    "type": "node",
    "latitude": 48.5855224,
    "longitude": 7.750654,
    "historic": "monument",
    "image": "http://fr.wikipedia.org/wiki/Fichier:Kellermann_statue_Strasbourg.jpg",
    "name": "Statue de Kellermann",
    "name:de": "Kellermann-Dkm.",
    "source": "survey",
    "subject:wikidata": "Q356933",
    "subject:wikipedia": "fr:François-Christophe Kellermann"
  },
  {
    "id": 1210189180,
    "type": "node",
    "latitude": 48.5880236,
    "longitude": 7.7486995,
    "historic": "monument",
    "image": "http://www.archi-strasbourg.org/adresse-7_rue_saint_leon_tribunal-republique_strasbourg-6.html?check=1&archiAffichage=adresseDetail&archiIdAdresse=6&archiIdEvenementGroupeAdresse=2798",
    "name": "Charles de Foucauld",
    "source": "survey"
  },
  {
    "id": 1646175973,
    "type": "node",
    "latitude": 48.5920976,
    "longitude": 7.7742165,
    "artwork_type": "statue",
    "historic": "monument",
    "name": "Gaenseliesel",
    "name:de": "Gänseliesel",
    "name:fr": "Gaenseliesel",
    "tourism": "artwork"
  },
  {
    "id": 2597701571,
    "type": "node",
    "latitude": 48.5813647,
    "longitude": 7.7421809,
    "name": "La Petite France",
    "place": "neighbourhood",
    "tourism": "attraction",
    "wheelchair": "limited",
    "wikidata": "Q965606",
    "wikipedia": "fr:Petite France (Strasbourg)"
  },
  {
    "id": 2959833903,
    "type": "node",
    "latitude": 48.5526863,
    "longitude": 7.6461025,
    "historic": "monument",
    "name": "Stèle Capitaine François Raith"
  },
  {
    "id": 2987788808,
    "type": "node",
    "latitude": 48.5972406,
    "longitude": 7.777696,
    "fee": "yes",
    "name": "Lieu d'Europe",
    "opening_hours": "Tu-Su 10:00-18:00",
    "tourism": "museum",
    "wheelchair": "yes"
  },
  {
    "id": 3451539391,
    "type": "node",
    "latitude": 48.6479101,
    "longitude": 7.7521551,
    "addr:housenumber": "1-13",
    "fee": "yes",
    "name": "Parc de la Maison Alsacienne",
    "operator": "Parc de la Maison Alsacienne Siège",
    "tourism": "museum",
    "website": "https://www.maisonalsacienne.fr/"
  },
  {
    "id": 4693518024,
    "type": "node",
    "latitude": 48.5951696,
    "longitude": 7.7593407,
    "historic": "monument",
    "name": "Mémorial des Résistants FFI"
  },
  {
    "id": 4817232942,
    "type": "node",
    "latitude": 48.5873467,
    "longitude": 7.7474571,
    "fee": "no",
    "name": "Galerie Jungmann",
    "shop": "interior_decoration",
    "source": "survey",
    "tourism": "gallery"
  },
  {
    "id": 4922189599,
    "type": "node",
    "latitude": 48.5814686,
    "longitude": 7.7387284,
    "name": "Tour du Bourreau",
    "name:de": "Henkerturm",
    "name:en": "Executioners Tower",
    "tourism": "attraction"
  },
  {
    "id": 4935911321,
    "type": "node",
    "latitude": 48.608326,
    "longitude": 7.7489515,
    "historic": "monument",
    "name": "Déportés Juifs d'Auschwitz"
  },
  {
    "id": 4935911322,
    "type": "node",
    "latitude": 48.6083291,
    "longitude": 7.7489307,
    "historic": "monument",
    "name": "Réfugiés d'Oradour-sur-Glane"
  },
  {
    "id": 4935911323,
    "type": "node",
    "latitude": 48.6083295,
    "longitude": 7.7489079,
    "historic": "monument",
    "name": "Enfants Mort victimes de la barbarie Nazie"
  },
  {
    "id": 4997520821,
    "type": "node",
    "latitude": 48.5820412,
    "longitude": 7.7501449,
    "addr:city": "Strasbourg",
    "addr:housenumber": "18",
    "addr:postcode": "67000",
    "addr:street": "Place de la Cathédrale",
    "check_date": "2025-02-14",
    "contact:email": "info@batorama.com",
    "contact:phone": "+33 (0)3 69 74 44 04",
    "description": "Boutique de souvenirs et de billets pour les croisières touristiques Batorama",
    "image": "https://lh5.googleusercontent.com/p/AF1QipOszvl5EO6K_ivzo1YmCUsPXLLbqvVaTpbpOaxH=w600-h650-p-k-no",
    "name": "Batorama Boutique",
    "name:en": "Batorama shop",
    "opening_hours": "24/7; hours=variable",
    "operator": "Batorama",
    "shop": "tourism",
    "tourism": "attraction",
    "website": "https://www.batorama.com/fr"
  },
  {
    "id": 5030606956,
    "type": "node",
    "latitude": 48.5828963,
    "longitude": 7.7507402,
    "check_date:opening_hours": "2023-07-24",
    "fee": "no",
    "name": "Carré d'artistes",
    "opening_hours": "Tu-Sa 10:00-19:00; Mo 14:00-19:00",
    "tourism": "gallery",
    "wheelchair": "no"
  },
  {
    "id": 5337155724,
    "type": "node",
    "latitude": 48.584461,
    "longitude": 7.7511927,
    "fee": "no",
    "name": "Galerie brûlée",
    "opening_hours": "Tu-Sa 15:00-19:00",
    "phone": "+33682875227",
    "tourism": "gallery",
    "wheelchair": "no"
  },
  {
    "id": 5337213141,
    "type": "node",
    "latitude": 48.584633,
    "longitude": 7.7538498,
    "addr:city": "Strasbourg",
    "addr:housenumber": "9",
    "addr:postcode": "67000",
    "addr:street": "Rue du Parchemin",
    "fee": "no",
    "name": "Malagacha Gallery",
    "opening_hours": "Tu-Sa 10:30-12:30,14:00-19:00",
    "tourism": "gallery",
    "website": "https://malagacha-gallery.com/"
  },
  {
    "id": 5780999334,
    "type": "node",
    "latitude": 48.5806449,
    "longitude": 7.7363402,
    "check_date": "2024-08-13",
    "fee": "no",
    "name": "Galerie Philippe Decorde",
    "opening_hours": "We-Su 14:00-19:00",
    "tourism": "gallery"
  },
  {
    "id": 6209832336,
    "type": "node",
    "latitude": 48.5861552,
    "longitude": 7.7366367,
    "addr:city": "Strasbourg",
    "addr:housenumber": "3",
    "addr:postcode": "67083",
    "addr:street": "Boulevard du Président Wilson",
    "description": "Association Voyages Loisirs ouverte à tous",
    "email": "atc.stg@gmail.com",
    "fax": "+33 3 88 75 39 24",
    "name": "Association Touristique des Cheminots (Routes du Monde)",
    "phone": "+33 3 88 75 39 23",
    "tourism": "attraction",
    "website": "http://atcstrasbourg.comoj.com"
  },
  {
    "id": 6482311825,
    "type": "node",
    "latitude": 48.5834746,
    "longitude": 7.7627726,
    "fee": "no",
    "name": "Musée de Minéralogie",
    "name:de": "Mineralogie-Museum",
    "operator": "Université de Strasbourg",
    "tourism": "museum",
    "wikidata": "Q3330101"
  },
  {
    "id": 6620864935,
    "type": "node",
    "latitude": 48.5838791,
    "longitude": 7.7460817,
    "fee": "no",
    "level": "1",
    "name": "Aubette 1928",
    "opening_hours": "We-Sa 14:00-18:00",
    "operator": "Musées de la Ville de Strasbourg",
    "tourism": "museum",
    "website": "https://www.musees.strasbourg.eu/aubette-1928",
    "wheelchair": "yes",
    "wikidata": "Q55206209"
  },
  {
    "id": 7926369847,
    "type": "node",
    "latitude": 48.5804459,
    "longitude": 7.7436997,
    "addr:city": "Strasbourg",
    "addr:housenumber": "14",
    "addr:postcode": "67000",
    "addr:street": "Rue des Dentelles",
    "fee": "no",
    "name": "Galerie Pascale Froessel",
    "opening_hours": "Tu-Sa 15:00-19:00",
    "phone": "+33388327448",
    "tourism": "gallery",
    "website": "http://www.galerie-pascale-froessel.fr/",
    "wheelchair": "yes"
  },
  {
    "id": 7926976939,
    "type": "node",
    "latitude": 48.5802204,
    "longitude": 7.7520032,
    "addr:city": "Strasbourg",
    "addr:postcode": "67000",
    "addr:street": "Place du Marché aux Poissons",
    "contact:instagram": "batorama",
    "description": "Point de départ des croisières touristiques Batorama",
    "description:de": "Touristischer Kreuzfahrtservice",
    "name": "BATORAMA, Bateaux-promenades",
    "name:de": "BATORAMA, Bootstouren",
    "name:en": "BATORAMA, Boat tours",
    "operator": "Batorama",
    "reservation:website": "https://shop.batorama.com/accueil/landing.jsp?process=2",
    "tourism": "attraction",
    "website": "https://www.batorama.com/fr"
  },
  {
    "id": 7934241887,
    "type": "node",
    "latitude": 48.5848647,
    "longitude": 7.7462787,
    "addr:city": "Strasbourg",
    "addr:housenumber": "2",
    "addr:postcode": "67000",
    "addr:street": "Petite Rue de l'Église",
    "fee": "no",
    "name": "Strass'art gallery",
    "opening_hours": "Mo-Sa 10:00-19:00",
    "tourism": "gallery",
    "website": "https://www.strassart.fr",
    "wheelchair": "yes"
  },
  {
    "id": 8130311014,
    "type": "node",
    "latitude": 48.6146251,
    "longitude": 7.7554028,
    "addr:city": "Bischheim",
    "addr:housenumber": "17",
    "addr:postcode": "67800",
    "addr:street": "Rue Nationale",
    "name": "Musée du Bain Rituel Juif",
    "opening_hours:covid19": "off",
    "tourism": "museum",
    "website": "https://courdesboecklin.ville-bischheim.fr/le-musee"
  },
  {
    "id": 9022454744,
    "type": "node",
    "latitude": 48.5820901,
    "longitude": 7.7416968,
    "check_date": "2024-03-06",
    "fee": "no",
    "level": "0",
    "name": "Kilian Francis",
    "phone": "+33 3 88 32 41 00",
    "source": "survey",
    "tourism": "gallery",
    "website": "https://galerie-kilian.com/",
    "wheelchair": "limited"
  },
  {
    "id": 9172286445,
    "type": "node",
    "latitude": 48.5242245,
    "longitude": 7.7979115,
    "name": "Observation de la passe à poissons",
    "reservation": "no",
    "tourism": "attraction"
  },
  {
    "id": 9815063424,
    "type": "node",
    "latitude": 48.5985908,
    "longitude": 7.7773323,
    "addr:city": "Strasbourg",
    "addr:housenumber": "23",
    "addr:postcode": "67000",
    "addr:street": "Rue Boecklin",
    "fee": "no",
    "name": "Apollonia - Échanges Artistiques Européens",
    "name:en": "Apollonia - European Art Exchanges",
    "opening_hours": "We-Fr 11:00-18:00; Sa-Su 14:00-18:00",
    "operator": "Apollonia",
    "phone": "+33 9 53 40 37 34",
    "tourism": "gallery",
    "website": "https://www.apollonia-art-exchanges.com"
  },
  {
    "id": 10159087425,
    "type": "node",
    "latitude": 48.5803834,
    "longitude": 7.728755,
    "addr:city": "Strasbourg",
    "addr:housenumber": "4",
    "addr:postcode": "67000",
    "addr:street": "Rue de Koenigshoffen",
    "check_date": "2024-10-04",
    "email": "contact@chateau-vodou.com",
    "fee": "yes",
    "museum": "history",
    "name": "Château Vodou",
    "opening_hours": "Tu-Su 14:00-18:00",
    "payment:cash": "yes",
    "payment:credit_cards": "yes",
    "payment:debit_cards": "yes",
    "phone": "+33 3 88 36 15 03",
    "source": "survey",
    "toilets": "yes",
    "tourism": "museum",
    "website": "https://www.chateau-vodou.com"
  },
  {
    "id": 10732190852,
    "type": "node",
    "latitude": 48.5809932,
    "longitude": 7.7545961,
    "check_date": "2024-02-11",
    "fee": "no",
    "name": "L'Estampe",
    "tourism": "gallery",
    "wheelchair": "limited"
  },
  {
    "id": 11037783352,
    "type": "node",
    "latitude": 48.5825387,
    "longitude": 7.7517489,
    "fee": "no",
    "name": "Zee-art",
    "tourism": "gallery"
  },
  {
    "id": 11610391448,
    "type": "node",
    "latitude": 48.5794285,
    "longitude": 7.7560876,
    "check_date": "2024-02-11",
    "fee": "no",
    "name": "Wyrd",
    "tourism": "gallery"
  },
  {
    "id": 11730743176,
    "type": "node",
    "latitude": 48.5686809,
    "longitude": 7.748614,
    "email": "galerie@amesdafrique.com",
    "fee": "no",
    "name": "Ames d'Afrique",
    "phone": "+33 6 10 80 70 13",
    "source": "panoramax",
    "tourism": "gallery",
    "website": "http://ames.afrique.free.fr/accueil.html"
  },
  {
    "id": 11775120142,
    "type": "node",
    "latitude": 48.578417,
    "longitude": 7.75445,
    "check_date": "2024-03-31",
    "name": "Jaek El Diablo",
    "tourism": "gallery"
  }
]