[
  {
    "id": 247081244,
    "type": "node",
    "latitude": 43.6023148,
    "longitude": 1.4431296,
    "contact:phone": "+33 5 62 27 11 50",
    "fee": "yes",
    "museum_type": "municipal",
    "name": "Musée du Vieux-Toulouse",
    "opening_hours": "Mo-Sa 14:00-18:00; PH closed",
    "ref:FR:museofile": "M0567",
    "source": "GrandToulouse",
    "source:date": "2011-11-06",
    "tourism": "museum",
    "website": "https://www.toulouse-tourisme.com/activite/musee-du-vieux-toulouse/",
    "wikidata": "Q3330403",
    "wikipedia": "fr:Musée du Vieux Toulouse"
  },
  {
    "id": 672167206,
    "type": "node",
    "latitude": 43.5667225,
    "longitude": 1.4734519,
    "name": "Mirage III",
    "tourism": "attraction"
  },
  {
    "id": 786851741,
    "type": "node",
    "latitude": 43.5939382,
    "longitude": 1.4438656,
    "description": "Vestiges du rempart gallo-romain de Toulouse",
    "name": "Vestige de rempart",
    "tourism": "attraction",
    "wikipedia": "fr:Rempart gallo-romain de Toulouse"
  },
  {
    "id": 786852109,
    "type": "node",
    "latitude": 43.5947288,
    "longitude": 1.4431864,
    "name": "Statuette de l'Homme Armé",
    "tourism": "attraction",
    "wikimedia_commons": "File:L'homme armé ou le sauvage .jpg"
  },
  {
    "id": 826617105,
    "type": "node",
    "latitude": 43.4933822,
    "longitude": 1.5356623,
    "name": "Le Galion",
    "tourism": "attraction"
  },
  {
    "id": 897645743,
    "type": "node",
    "latitude": 43.5596666,
    "longitude": 1.2673091,
    "name": "Spectacle des Oiseaux",
    "tourism": "attraction"
  },
  {
    "id": 1419857956,
    "type": "node",
    "latitude": 43.5844452,
    "longitude": 1.4276068,
    "historic": "wayside_cross",
    "name": "La Croix de Pierre",
    "source": "Connaissance locale",
    "tourism": "attraction"
  },
  {
    "id": 1534355624,
    "type": "node",
    "latitude": 43.5992854,
    "longitude": 1.4366659,
    "addr:city": "Toulouse",
    "addr:housenumber": "2",
    "addr:postcode": "31055",
    "addr:street": "Rue Viguerie",
    "fee": "no",
    "name": "Musée d'Histoire de la Médecine de Toulouse",
    "source": "GrandToulouse",
    "source:date": "2011-11-06",
    "tourism": "museum",
    "website": "https://www.musee-medecine.com/",
    "wikidata": "Q2379397"
  },
  {
    "id": 1649207014,
    "type": "node",
    "latitude": 43.5987465,
    "longitude": 1.4304583,
    "fee": "yes",
    "name": "Galerie Le château d'eau",
    "name:fr": "Galerie Le château d'eau",
    "name:oc": "Galariá La sèrva d'aiga",
    "opening_hours": "Tu-Su 12:00-19:00",
    "tourism": "gallery",
    "wikidata": "Q2945872"
  },
  {
    "id": 1649207017,
    "type": "node",
    "latitude": 43.5889001,
    "longitude": 1.4566916,
    "addr:housenumber": "52",
    "addr:postcode": "31400",
    "addr:street": "Allée des Demoiselles",
    "contact:phone": "+33 5 34 33 17 40",
    "contact:website": "http://musee-resistance.haute-garonne.fr/fr/index.html",
    "fee": "no",
    "name": "Musée de La Résistance et de la Déportation",
    "opening_hours": "Tu-Sa 10:00-18:00",
    "source": "GrandToulouse",
    "source:date": "2011-11-06",
    "tourism": "museum"
  },
  {
    "id": 1772759884,
    "type": "node",
    "latitude": 43.595337,
    "longitude": 1.4430488,
    "heritage": "2",
    "heritage:operator": "mhs",
    "mhs:inscription_date": "1963-12-11",
    "name": "Fonderie de canons de Toulouse",
    "ref:mhs": "PA00094632",
    "source:heritage": "Ministère de la Culture - 06/2019",
    "tourism": "attraction",
    "wikidata": "Q22938827"
  },
  {
    "id": 1982847379,
    "type": "node",
    "latitude": 43.6001991,
    "longitude": 1.4420464,
    "contact:street": "Place d'Assézat",
    "fee": "yes",
    "name": "Fondation Bemberg",
    "opening_hours": "Tu-Su 10:00-12:30,13:30-18:00, Th 10:00-12:30,13:30-20:30",
    "tourism": "museum",
    "website": "https://www.fondation-bemberg.fr/fr/home.html",
    "wikidata": "Q16303680"
  },
  {
    "id": 2020299444,
    "type": "node",
    "latitude": 43.5338234,
    "longitude": 1.4590219,
    "contact:city": "Toulouse",
    "contact:email": "info@apiculture31.com",
    "contact:housenumber": "40",
    "contact:phone": "+33 5 61 75 74 04",
    "contact:postcode": "31400",
    "contact:street": "Chemin de Pechbusque",
    "contact:website": "https://www.apiculture31.com",
    "name": "Musée de l'Abeille",
    "source:date": "2012/10/04",
    "tourism": "museum"
  },
  {
    "id": 2083634308,
    "type": "node",
    "latitude": 43.6323894,
    "longitude": 1.4519517,
    "addr:housenumber": "24-26",
    "addr:postcode": "31200",
    "addr:street": "Avenue Maurice Bourgès-Maunoury",
    "contact:phone": "+33 5 67 73 84 84",
    "contact:website": "https://www.museum.toulouse.fr/",
    "fee": "yes",
    "leisure": "garden",
    "name": "Les Jardins du Muséum à Borderouge",
    "note": "Un lieu enchanteur, nature, culture et détente. Ouvert de mai à octobre. L'entrée est à 3 euros!",
    "source": "ToulouseMetropole",
    "source:date": "2012-10-04;2011-11-06",
    "tourism": "museum",
    "website": "https://www.museum.toulouse.fr/infos-pratiques-jardins-museum-toulouse-borderouge"
  },
  {
    "id": 2459884587,
    "type": "node",
    "latitude": 43.5991391,
    "longitude": 1.4457537,
    "contact:facebook": "https://www.facebook.com/galeriefabricegalvani/",
    "contact:housenumber": "46",
    "contact:street": "Rue du Languedoc",
    "fee": "no",
    "name": "Galerie Fabrice Galvani",
    "opening_hours": "Tu-Sa 10:30-12:30,14:30-19:00",
    "phone": "+33 5 62 17 24 92",
    "ref:FR:SIRET": "51157760300026",
    "shop": "art",
    "tourism": "gallery",
    "website": "http://www.galeriefabricegalvani.com/"
  },
  {
    "id": 2462248725,
    "type": "node",
    "latitude": 43.5979607,
    "longitude": 1.4438959,
    "contact:facebook": "https://www.facebook.com/GalerieLeConfortDesEtranges",
    "contact:housenumber": "33",
    "contact:street": "Rue des Polinaires",
    "craft": "art",
    "fee": "no",
    "name": "Le confort des étranges",
    "opening_hours": "Th 17:00-20:00; Fr-Sa 16:00-20:00",
    "ref:FR:SIRET": "44764019400034",
    "shop": "art",
    "tourism": "gallery",
    "website": "http://galerie-le-confort-des-etranges.com"
  },
  {
    "id": 2464788530,
    "type": "node",
    "latitude": 43.6016403,
    "longitude": 1.4400396,
    "description": "Galerie d'art - L'atelier d'art contemporain",
    "fee": "no",
    "name": "Atelier 4bis",
    "source": "survey",
    "tourism": "gallery",
    "website": "https://atelier-4bis-toulouse.blog4ever.com/"
  },
  {
    "id": 2464788532,
    "type": "node",
    "latitude": 43.6013078,
    "longitude": 1.4398978,
    "check_date:opening_hours": "2024-10-19",
    "fee": "no",
    "name": "Inessential Space -  Artist run space",
    "opening_hours:signed": "no",
    "ref:FR:SIRET": "92388330000017",
    "tourism": "gallery"
  },
  {
    "id": 2464788584,
    "type": "node",
    "latitude": 43.6017366,
    "longitude": 1.4396706,
    "addr:city": "Toulouse",
    "addr:housenumber": "8",
    "addr:postcode": "31000",
    "addr:street": "Place de la Daurade",
    "description": "Un espace d'exposition gratuit pour découvrir l'histoire de la ville en un clin d'oeil.",
    "fee": "no",
    "museum": "history",
    "name": "Espace Patrimoine - Toulouse",
    "opening_hours": "Tu-Sa 10:00-18:00",
    "operator": "Mairie de Toulouse",
    "operator:type": "public",
    "source": "survey",
    "tourism": "museum",
    "website": "https://metropole.toulouse.fr/annuaire/espace-patrimoine"
  },
  {
    "id": 2478393271,
    "type": "node",
    "latitude": 43.6005432,
    "longitude": 1.4506683,
    "fee": "no",
    "name": "Place de l'art",
    "opening_hours": "Mo 14:00-18:30; Tu-Sa 10:00-13:00,15:00-18:30",
    "tourism": "gallery"
  },
  {
    "id": 3441258068,
    "type": "node",
    "latitude": 43.4368373,
    "longitude": 2.0181817,
    "name": "Gerbe d'eau de Saint-Ferréol",
    "natural": "geyser",
    "tourism": "attraction"
  },
  {
    "id": 3751077567,
    "type": "node",
    "latitude": 43.6044094,
    "longitude": 1.452412,
    "fee": "no",
    "name": "Galerie Palladion",
    "survey:date": "2023-11-18",
    "tourism": "gallery"
  },
  {
    "id": 3885017086,
    "type": "node",
    "latitude": 43.5980054,
    "longitude": 1.4485252,
    "contact:facebook": "https://www.facebook.com/Galerie-Jean-Paul-Barr%C3%A8s-137646710121000/",
    "fee": "no",
    "name": "Galerie Jean-Paul Barrès",
    "opening_hours": "We-Sa 14:30-19:00",
    "shop": "art",
    "tourism": "gallery",
    "website": "https://www.galeriejeanpaulbarres.com/"
  },
  {
    "id": 4011776228,
    "type": "node",
    "latitude": 43.5945205,
    "longitude": 1.4510813,
    "addr:city": "Toulouse",
    "addr:housenumber": "39",
    "addr:postcode": "31000",
    "addr:street": "Allées Jules Guesde",
    "check_date:opening_hours": "2024-05-12",
    "contact:phone": "+33 5 67 73 84 84",
    "contact:website": "https://www.quaidessavoirs.fr",
    "fee": "yes",
    "museum": "science;technology;art",
    "name": "Quai des savoirs",
    "opening_hours": "Tu-Su 10:00-18:00",
    "operator": "Toulouse Métropole",
    "tourism": "museum",
    "wikidata": "Q40041199",
    "wikipedia": "fr:Quai des Savoirs"
  },
  {
    "id": 4275473264,
    "type": "node",
    "latitude": 43.5855986,
    "longitude": 1.4936171,
    "indoor": "yes",
    "level": "0",
    "name": "Soyouz",
    "operator": "SEMECCEL",
    "tourism": "attraction",
    "wheelchair": "yes"
  },
  {
    "id": 4275473548,
    "type": "node",
    "latitude": 43.5859766,
    "longitude": 1.4935813,
    "amenity": "clock",
    "display": "sundial",
    "operator": "Cité de l'espace",
    "support": "ground",
    "tourism": "attraction",
    "visibility": "area"
  },
  {
    "id": 4275473549,
    "type": "node",
    "latitude": 43.5859695,
    "longitude": 1.4937184,
    "amenity": "clock",
    "display": "sundial",
    "name": "Gnomon",
    "operator": "Cité de l'espace",
    "support": "ground",
    "tourism": "attraction"
  },
  {
    "id": 4275473556,
    "type": "node",
    "latitude": 43.5860121,
    "longitude": 1.4938082,
    "amenity": "clock",
    "display": "sundial",
    "name": "Héliochronomètre",
    "operator": "Cité de l'espace",
    "tourism": "attraction"
  },
  {
    "id": 4275473559,
    "type": "node",
    "latitude": 43.586028,
    "longitude": 1.4927249,
    "name": "Coiffe d'Ariane 1",
    "operator": "SEMECCEL",
    "tourism": "attraction",
    "wheelchair": "yes"
  },
  {
    "id": 4275473576,
    "type": "node",
    "latitude": 43.5861183,
    "longitude": 1.4927815,
    "name": "Ariane 1 Réservoir 3ème étage",
    "operator": "SEMECCEL",
    "tourism": "attraction",
    "wheelchair": "yes"
  },
  {
    "id": 4275473579,
    "type": "node",
    "latitude": 43.586163,
    "longitude": 1.492806,
    "name": "Ariane 1 Réservoir 2ème étage",
    "operator": "SEMECCEL",
    "tourism": "attraction",
    "wheelchair": "yes"
  },
  {
    "id": 4275473584,
    "type": "node",
    "latitude": 43.5862166,
    "longitude": 1.492828,
    "name": "Ariane 1 Jupe conique inter-étage",
    "operator": "SEMECCEL",
    "tourism": "attraction",
    "wheelchair": "yes"
  },
  {
    "id": 4275473790,
    "type": "node",
    "latitude": 43.5862699,
    "longitude": 1.492859,
    "name": "Ariane 1 Jupe avant 1er étage",
    "operator": "SEMECCEL",
    "tourism": "attraction",
    "wheelchair": "yes"
  },
  {
    "id": 4275473793,
    "type": "node",
    "latitude": 43.5863255,
    "longitude": 1.4928906,
    "name": "Ariane 1 Réservoir 1er étage",
    "operator": "SEMECCEL",
    "tourism": "attraction",
    "wheelchair": "yes"
  },
  {
    "id": 4275473805,
    "type": "node",
    "latitude": 43.5864072,
    "longitude": 1.492958,
    "name": "XMM-Newton",
    "tourism": "attraction",
    "wheelchair": "yes",
    "wikidata": "Q124608423"
  },
  {
    "id": 4275473809,
    "type": "node",
    "latitude": 43.5864435,
    "longitude": 1.4932855,
    "name": "Véhicule Soyouz",
    "tourism": "attraction",
    "wheelchair": "yes",
    "wikidata": "Q579421",
    "wikipedia": "fr:Soyouz_(véhicule_spatial)"
  },
  {
    "id": 4275473810,
    "type": "node",
    "latitude": 43.5864477,
    "longitude": 1.4935975,
    "name": "Satellite ERS-2",
    "tourism": "attraction",
    "wheelchair": "yes",
    "wikidata": "Q63347"
  },
  {
    "id": 4999296071,
    "type": "node",
    "latitude": 43.7591782,
    "longitude": 1.0460091,
    "addr:city": "Cox",
    "addr:postcode": "31480",
    "addr:street": "Route de Toulouse",
    "email": "musee.cox@free.fr",
    "name": "Musée de Cox",
    "phone": "+33562137031",
    "tourism": "museum",
    "website": "http://www.museecox.com/"
  },
  {
    "id": 5820211453,
    "type": "node",
    "latitude": 43.6048802,
    "longitude": 1.4432215,
    "name": "Petit train touristique",
    "name:en": "Small touristic train",
    "tourism": "attraction",
    "wheelchair": "yes"
  },
  {
    "id": 5865491985,
    "type": "node",
    "latitude": 43.60059,
    "longitude": 1.3929766,
    "addr:housenumber": "41",
    "addr:postcode": "31300",
    "addr:street": "Rue de Lisieux",
    "name": "Salsatheque Toulouse",
    "phone": "+33 6 10 10 73 27",
    "tourism": "attraction"
  },
  {
    "id": 5873226085,
    "type": "node",
    "latitude": 43.4633173,
    "longitude": 1.5703827,
    "name": "Écluse de Montgiscard",
    "name:en": "Montgiscard sluice",
    "tourism": "attraction"
  },
  {
    "id": 5937037356,
    "type": "node",
    "latitude": 43.6022607,
    "longitude": 1.4444493,
    "addr:housenumber": "5",
    "addr:street": "Rue Jules Chalande",
    "fee": "no",
    "name": "La Galerie 3.1",
    "opening_hours": "Tu,We 10:00-17:00; Sa 12:00-18:00; Th,Fr 10:00-18:00",
    "operator": "Conseil départemental de la Haute-Garonne",
    "phone": "+33 5 34 45 58 30",
    "tourism": "gallery",
    "website": "https://www.haute-garonne.fr/service/la-galerie-31"
  },
  {
    "id": 5949885563,
    "type": "node",
    "latitude": 43.6157036,
    "longitude": 1.4564011,
    "addr:city": "Toulouse",
    "addr:postcode": "31500",
    "name": "L'Imagerie",
    "note": "Est aussi une école de dessin",
    "source": "local knowledge",
    "tourism": "gallery"
  },
  {
    "id": 5955826168,
    "type": "node",
    "latitude": 43.6041754,
    "longitude": 1.431971,
    "addr:city": "Toulouse",
    "addr:country": "FR",
    "addr:housenumber": "11",
    "addr:postcode": "31000",
    "addr:street": "Quai Saint-Pierre",
    "contact:phone": "+33 5 62301600",
    "contact:website": "http://bazacle.edf.com/",
    "historic": "museum",
    "name": "Espace EDF Bazacle",
    "name:en": "EDF Bazacle Complex",
    "name:es": "Espacio EDF Bazacle",
    "opening_hours": "Jan-Apr, Nov-Dec Tu-Su 11:00-18:00; May-Oct Tu-Su 11:00-19:00",
    "operator": "EDF",
    "tourism": "attraction",
    "wheelchair": "yes",
    "wikidata": "Q30140515",
    "wikipedia": "fr:Bazacle"
  },
  {
    "id": 6493223853,
    "type": "node",
    "latitude": 43.5674144,
    "longitude": 1.4727726,
    "name": "MiG-15",
    "tourism": "attraction",
    "wheelchair": "yes"
  },
  {
    "id": 6493863029,
    "type": "node",
    "latitude": 43.5720639,
    "longitude": 1.4718121,
    "name": "Mirage III A10",
    "tourism": "attraction",
    "wheelchair": "yes"
  },
  {
    "id": 6726873491,
    "type": "node",
    "latitude": 43.787165,
    "longitude": 1.1295546,
    "name": "Crazy Circus",
    "tourism": "attraction"
  },
  {
    "id": 7237149600,
    "type": "node",
    "latitude": 43.6040014,
    "longitude": 1.4367944,
    "contact:housenumber": "9",
    "contact:street": "Rue Pargaminières",
    "name": "Le bocal",
    "phone": "+33 6 20 51 22 21",
    "tourism": "gallery",
    "website": "https://www.facebook.com/lebocaltoulouse/"
  },
  {
    "id": 7369678026,
    "type": "node",
    "latitude": 43.5950486,
    "longitude": 1.4443561,
    "description": "Galerie d'Art Contemporain",
    "name": "Galerie 21",
    "tourism": "gallery",
    "website": "https://galerie21-toulouse.fr/"
  },
  {
    "id": 7383272459,
    "type": "node",
    "latitude": 43.5979704,
    "longitude": 1.4420873,
    "craft": "art",
    "name": "Atelier Cyril Le Van",
    "tourism": "gallery"
  },
  {
    "id": 7398834035,
    "type": "node",
    "latitude": 43.601708,
    "longitude": 1.4431072,
    "addr:housenumber": "12",
    "addr:postcode": "31200",
    "addr:street": "Rue Tripière",
    "fee": "no",
    "name": "Musée des Compagnons du Tour de France",
    "opening_hours": "We 14:00-17:00",
    "phone": "+33 5 62 47 41 77",
    "tourism": "museum",
    "website": "https://toulouse.compagnonsdutourdefrance.org/pages/nos-musees",
    "wheelchair": "no",
    "wikidata": "Q56649863"
  },
  {
    "id": 7417568928,
    "type": "node",
    "latitude": 43.5990173,
    "longitude": 1.4491519,
    "check_date": "2023-04-03",
    "contact:housenumber": "8",
    "contact:street": "Rue Pierre de Fermat",
    "name": "Galerie Philippe Tajan",
    "opening_hours": "Tu-Sa 10:30-12:00,14:30-19:00",
    "phone": "+33 5 81 34 40 29 /",
    "ref:FR:SIRET": "34370591900037",
    "shop": "art",
    "tourism": "gallery",
    "website": "http://www.galerie-tableaux-tajan.com/galerie-philippe-tajan-toulouse"
  },
  {
    "id": 7419099437,
    "type": "node",
    "latitude": 43.5993565,
    "longitude": 1.4491151,
    "contact:instagram": "https://www.instagram.com/suduca_merillou/",
    "contact:street": "Rue Pierre de Fermat",
    "fee": "no",
    "name": "Galerie Saint-Jaques",
    "opening_hours": "Mo-Sa 10:00-12:30, 14:00-19:00",
    "phone": "+33 5 61 52 40 71",
    "shop": "art",
    "tourism": "gallery",
    "website": "https://www.galeriesaintjacques.com/"
  },
  {
    "id": 7419099439,
    "type": "node",
    "latitude": 43.5992356,
    "longitude": 1.4490849,
    "contact:facebook": "https://www.facebook.com/galeriesans/",
    "contact:street": "Rue Pierre de Fermat",
    "fee": "no",
    "name": "Galerie Sans",
    "opening_hours": "Tu-Sa 10:00-19:30",
    "shop": "art",
    "tourism": "gallery"
  },
  {
    "id": 7560648033,
    "type": "node",
    "latitude": 43.5049382,
    "longitude": 1.4108084,
    "name": "Atelier Vie d'Artiste",
    "shop": "art",
    "source": "https://www.openstreetmap.org/note/1686162",
    "tourism": "gallery",
    "website": "http://valy.husson.free.fr/contact.html"
  },
  {
    "id": 7593593621,
    "type": "node",
    "latitude": 43.5985087,
    "longitude": 1.4469244,
    "name": "Galerie Esquerre",
    "tourism": "gallery"
  },
  {
    "id": 7593593623,
    "type": "node",
    "latitude": 43.5982263,
    "longitude": 1.4471651,
    "contact:facebook": "https://www.facebook.com/galeriemagetoulouse/",
    "name": "Galerie Mage",
    "tourism": "gallery",
    "website": "http://www.galerie-mage.com/"
  },
  {
    "id": 7598070503,
    "type": "node",
    "latitude": 43.5983348,
    "longitude": 1.4468013,
    "contact:facebook": "https://www.facebook.com/Valerie-Maffre-Peintre-et-Photographe-115306078656214/",
    "name": "Galerie Valérie Maffre",
    "opening_hours": "Tu-Sa 15:00-19:00",
    "phone": "+33 5 34 31 58 55 -",
    "ref:FR:SIRET": "37782952800027",
    "shop": "antiques",
    "source": "INSEE - 06/2019",
    "tourism": "gallery",
    "website": "http://www.galerie-valerie-maffre.com/"
  },
  {
    "id": 7598070512,
    "type": "node",
    "latitude": 43.5981357,
    "longitude": 1.4465267,
    "name": "Galerie Advient",
    "tourism": "gallery",
    "website": "https://www.facebook.com/Galerie-Advient-465536433638430/"
  },
  {
    "id": 7639743096,
    "type": "node",
    "latitude": 43.6123306,
    "longitude": 1.4453448,
    "fee": "no",
    "name": "my gallery",
    "opening_hours": "Tu-Sa 10:00-19:00",
    "ref:FR:SIRET": "49002948500037",
    "source": "INSEE - 06/2019",
    "tourism": "gallery"
  },
  {
    "id": 7678080733,
    "type": "node",
    "latitude": 43.599374,
    "longitude": 1.4431914,
    "fee": "no",
    "name": "Green Galerie",
    "opening_hours": "Tu-Sa 11:00-19:00",
    "shop": "tattoo",
    "tourism": "gallery",
    "website": "https://www.facebook.com/greengalerieexpo"
  },
  {
    "id": 7678080740,
    "type": "node",
    "latitude": 43.5979531,
    "longitude": 1.4438499,
    "artwork_type": "sculpture",
    "craft": "art",
    "fee": "no",
    "name": "Galerie des Carmes & Atelier Langloÿs",
    "opening_hours": "\"sur rendez-vous\"",
    "phone": "+33 5 61 47 38 16",
    "shop": "art",
    "tourism": "gallery",
    "website": "https://www.galeriedescarmes.com/"
  },
  {
    "id": 7685024316,
    "type": "node",
    "latitude": 43.5995221,
    "longitude": 1.4460567,
    "check_date:opening_hours": "2024-10-19",
    "fee": "no",
    "name": "Sakah",
    "opening_hours:signed": "no",
    "tourism": "gallery",
    "website": "https://www.sakahgalerie.com/"
  },
  {
    "id": 7685024318,
    "type": "node",
    "latitude": 43.5994886,
    "longitude": 1.445893,
    "fee": "no",
    "name": "Galerie Valat",
    "opening_hours": "We-Sa 12:00-19:00",
    "tourism": "gallery",
    "website": "https://www.ericvalat.com/galerie/"
  },
  {
    "id": 7685024322,
    "type": "node",
    "latitude": 43.599493,
    "longitude": 1.4450582,
    "check_date": "2025-04-27",
    "fee": "no",
    "name": "In arte veritas",
    "opening_hours": "Mo 14:00-19:00;Tu-Sa 10:00-13:00,14:00-19:00",
    "phone": "+33534317484",
    "tourism": "gallery",
    "website": "https://www.galeriealaindaudet.fr/",
    "wheelchair": "no"
  },
  {
    "id": 7700449735,
    "type": "node",
    "latitude": 43.5981216,
    "longitude": 1.449046,
    "check_date": "2023-04-03",
    "contact:street": "Rue Ninau",
    "name": "La galerie des métiers d’art",
    "opening_hours": "Mo-Fr 10:00-19:00; Sa 10:00-18:00",
    "phone": "+33 5 34 31 06 17",
    "tourism": "gallery",
    "website": "https://www.lagaleriedesmetiersdart.com"
  },
  {
    "id": 7785156325,
    "type": "node",
    "latitude": 43.5961316,
    "longitude": 1.4475486,
    "contact:housenumber": "19",
    "contact:street": "Rue Théodore Ozenne",
    "fee": "no",
    "name": "Galerie Sourillan",
    "opening_hours": "Tu-Fr 09:00-12:00,14:30-19:00; Sa 14:00-19:00",
    "phone": "+33 5 61 32 17 17",
    "ref:FR:SIRET": "32587532600044",
    "shop": "art",
    "tourism": "gallery",
    "website": "http://www.galeriesourillan.com/"
  },
  {
    "id": 8021491538,
    "type": "node",
    "latitude": 43.5851919,
    "longitude": 1.4925338,
    "name": "Empreinte lunaire",
    "operator": "SEMECCEL",
    "tourism": "attraction",
    "wheelchair": "yes"
  },
  {
    "id": 8021491556,
    "type": "node",
    "latitude": 43.5871625,
    "longitude": 1.493769,
    "name": "Champ des antennes",
    "operator": "SEMECCEL",
    "tourism": "attraction",
    "wheelchair": "yes"
  },
  {
    "id": 8021491567,
    "type": "node",
    "latitude": 43.5862483,
    "longitude": 1.4924511,
    "name": "Chang'e 4",
    "tourism": "attraction",
    "wheelchair": "yes",
    "wikidata": "Q723045",
    "wikipedia": "fr:Chang'e 4"
  },
  {
    "id": 8021491568,
    "type": "node",
    "latitude": 43.5866108,
    "longitude": 1.4912145,
    "description": "satellite érigé en sculpture",
    "name": "MSG",
    "tourism": "attraction",
    "wheelchair": "yes"
  },
  {
    "id": 8595830985,
    "type": "node",
    "latitude": 43.6469687,
    "longitude": 1.3843151,
    "name": "L'Aérochrome",
    "tourism": "gallery",
    "website": "https://www.mairie-blagnac.fr/laerochrome.html"
  },
  {
    "id": 8980829017,
    "type": "node",
    "latitude": 43.5861356,
    "longitude": 1.4474946,
    "addr:housenumber": "18 bis",
    "addr:postcode": "31400",
    "addr:street": "Grande Rue Saint-Michel",
    "check_date:opening_hours": "2024-06-08",
    "contact:facebook": "LeCasteletToulouse",
    "email": "lecastelet@culture.toulouse.fr",
    "fee": "no",
    "name": "Le Castelet",
    "opening_hours": "We-Su 11:00-18:00",
    "phone": "+33 6 17 97 28 86",
    "tourism": "museum",
    "website": "https://www.toulouse.fr/web/cultures/lieux-d-expositions#/annuaire-des-lieux/549/Le%20Castelet"
  },
  {
    "id": 9707061952,
    "type": "node",
    "latitude": 43.5988787,
    "longitude": 1.4372778,
    "tourism": "gallery"
  },
  {
    "id": 9794971317,
    "type": "node",
    "latitude": 43.6170576,
    "longitude": 1.3554887,
    "name:en": "Airbus 350XWB FAL Visitor Place",
    "tourism": "attraction"
  },
  {
    "id": 10157106773,
    "type": "node",
    "latitude": 43.5864066,
    "longitude": 1.4938189,
    "name": "Un grand manège planétaire",
    "operator": "Cité de l'espace",
    "tourism": "attraction",
    "wheelchair": "yes"
  },
  {
    "id": 11164690705,
    "type": "node",
    "latitude": 43.4272001,
    "longitude": 1.6994277,
    "historic": "monument"
  },
  {
    "id": 11637614767,
    "type": "node",
    "latitude": 43.585825,
    "longitude": 1.4935448,
    "name": "Astrovan",
    "tourism": "attraction",
    "wheelchair": "yes",
    "wikidata": "Q752180",
    "wikipedia": "fr:Astrovan"
  },
  {
    "id": 11731618513,
    "type": "node",
    "latitude": 43.6645542,
    "longitude": 1.505309,
    "name": "La Mosaïque",
    "tourism": "gallery"
  },
  {
    "id": 11835906565,
    "type": "node",
    "latitude": 43.5849669,
    "longitude": 1.4474031,
    "attraction": "kiddie_ride",
    "indoor": "yes",
    "name:signed": "no",
    "source": "survey 2024",
    "tourism": "attraction",
    "wheelchair": "no"
  },
  {
    "id": 11841706252,
    "type": "node",
    "latitude": 43.5857425,
    "longitude": 1.4928959,
    "name": "Étage Coralie",
    "operator": "SEMECCEL",
    "tourism": "attraction",
    "wheelchair": "yes",
    "wikimedia_commons": "Category:Coralie_at_Cité_de_l'espace"
  },
  {
    "id": 12143927078,
    "type": "node",
    "latitude": 43.524681,
    "longitude": 1.3405153,
    "name": "Le Majorat",
    "tourism": "museum"
  },
  {
    "id": 12182038286,
    "type": "node",
    "latitude": 43.6058163,
    "longitude": 1.4431614,
    "addr:city": "Toulouse",
    "addr:housenumber": "12",
    "addr:postcode": "31000",
    "addr:street": "Rue du Sénéchal",
    "fee": "no",
    "level": "0",
    "museum": "person",
    "name": "Le Petit Musée du Père Marie-Antoine",
    "opening_hours": "We-Su 14:00-18:00",
    "tourism": "museum",
    "website": "https://www.marieantoine.com/"
  },
  {
    "id": 12771798301,
    "type": "node",
    "latitude": 43.787298,
    "longitude": 1.1318415,
    "name": "Jurassik Vol",
    "tourism": "attraction"
  },
  {
    "id": 12772041101,
    "type": "node",
    "latitude": 43.7873423,
    "longitude": 1.1323861,
    "name": "Condor Fury",
    "tourism": "attraction"
  }
]