[
  {
    "id": 162847430,
    "type": "node",
    "latitude": 43.2945804,
    "longitude": 5.3692811,
    "contact:phone": "+33 4 91 33 25 44",
    "contact:vhf": "09",
    "harbour": "yes",
    "harbour:category": "marina",
    "is_in": "Marseille",
    "leisure": "marina",
    "maxdraft": "5m",
    "name": "Vieux-Port",
    "name:oc": "Pòrt Vièlh",
    "seamark:harbour:category": "marina",
    "seamark:type": "harbour",
    "source:name:oc": "ieo-bdtopoc",
    "tourism": "attraction",
    "wheelchair": "yes",
    "wikidata": "Q437959",
    "wikipedia": "fr:Vieux-Port de Marseille"
  },
  {
    "id": 742507343,
    "type": "node",
    "latitude": 43.2097439,
    "longitude": 5.3728917,
    "name": "Marseilleveyre",
    "name:fr": "Marseilleveyre",
    "name:oc": "Marselha Vièlha",
    "place": "isolated_dwelling",
    "source:name:oc": "ieo-bdtopoc",
    "tourism": "attraction"
  },
  {
    "id": 1347465236,
    "type": "node",
    "latitude": 43.2860127,
    "longitude": 5.35048,
    "architect:wikidata": "Q47361",
    "artist_name": "Gaston Castel",
    "artwork_type": "sculpture",
    "heritage": "2",
    "heritage:operator": "mhs",
    "heritage:ref": "PA13000057",
    "heritage:since": "2011",
    "heritage:website": "https://www.pop.culture.gouv.fr/notice/merimee/PA13000057",
    "historic": "monument",
    "name": "Monument aux morts de l'Armée d'Orient et des terres lointaines",
    "tourism": "artwork",
    "wikidata": "Q2489442",
    "wikipedia": "fr:Monument aux morts de l'Armée d'Orient et des terres lointaines"
  },
  {
    "id": 1503699114,
    "type": "node",
    "latitude": 43.2731794,
    "longitude": 5.3931148,
    "name": "Palais des arts",
    "tourism": "museum"
  },
  {
    "id": 1549176585,
    "type": "node",
    "latitude": 43.2938938,
    "longitude": 5.3849588,
    "addr:city": "Marseille",
    "addr:housenumber": "19",
    "addr:street": "Rue des Trois Rois",
    "check_date": "2024-03-02",
    "email": "contact@ohmirettes.fr",
    "name": "Oh ! Mirettes",
    "payment:cash": "yes",
    "payment:credit_cards": "yes",
    "payment:debit_cards": "yes",
    "phone": "+33 4 65 95 51 75",
    "tourism": "gallery",
    "wheelchair": "limited"
  },
  {
    "id": 1674650507,
    "type": "node",
    "latitude": 43.3263892,
    "longitude": 5.35832,
    "addr:street": "Boulevard des Bassins de Radoub",
    "email": "contact@lanavale.fr",
    "name": "Exposition sur la réparation navale",
    "official_name": "La Navale",
    "phone": "+33 7 57 77 95 55",
    "source": "data.gouv.fr:DATAtourisme - 05/2020",
    "tourism": "museum",
    "website": "https://lanavale.com/",
    "wheelchair": "no"
  },
  {
    "id": 1727170210,
    "type": "node",
    "latitude": 43.3054903,
    "longitude": 5.3947811,
    "addr:city": "Marseille",
    "name": "Observatoire de Marseille - Planétarium",
    "phone": "+33 4 91 14 59 30",
    "ref:FR:museofile": "M0913",
    "source": "http://www.andromede13.info/",
    "tourism": "museum",
    "website": "https://musees.marseille.fr/musee-des-beaux-arts-mba"
  },
  {
    "id": 1841969352,
    "type": "node",
    "latitude": 43.2191663,
    "longitude": 5.3490414,
    "fixme": "resurvey",
    "man_made": "geoglyph",
    "name": "Le Poisson",
    "tourism": "attraction"
  },
  {
    "id": 1842394629,
    "type": "node",
    "latitude": 43.321292,
    "longitude": 5.3898574,
    "name": "Musée du savon de Marseille",
    "opening_hours": "We 14:00-17:00; Fr 09:00-12:00",
    "tourism": "museum",
    "website": "https://www.savon-de-marseille-licorne.com/le-musee-du-savon-de-marseille-vieux-port-de-marseille"
  },
  {
    "id": 1979261200,
    "type": "node",
    "latitude": 43.2977936,
    "longitude": 5.3784437,
    "name": "Mémorial de La Marseillaise",
    "tourism": "museum",
    "website": "https://www.marseille.fr/siteculture/les-lieux-culturels/le-memorial-de-la-marseillaise",
    "wheelchair": "yes",
    "wikidata": "Q41180",
    "wikipedia": "fr:La Marseillaise"
  },
  {
    "id": 2083520594,
    "type": "node",
    "latitude": 43.2031279,
    "longitude": 5.5118159,
    "name": "Trou Souffleur",
    "name:oc": "Lo Bofador",
    "natural": "blowhole",
    "source:name:oc": "ieo-bdtopoc",
    "tourism": "attraction"
  },
  {
    "id": 2119952523,
    "type": "node",
    "latitude": 43.2960812,
    "longitude": 5.3687463,
    "addr:housenumber": "86",
    "name:en": "ColorBus Marseille",
    "source": "cadastre-dgi-fr source : Direction Générale des Impôts - Cadastre. Mise à jour : 2013",
    "tourism": "attraction"
  },
  {
    "id": 2283111988,
    "type": "node",
    "latitude": 43.2952466,
    "longitude": 5.385774,
    "historic": "monument",
    "name": "Monument Capazza"
  },
  {
    "id": 2365711963,
    "type": "node",
    "latitude": 43.2572605,
    "longitude": 5.3820342,
    "entrance": "main",
    "name": "Musée des arts décoratifs, de la faïence et de la mode",
    "phone": "+33 4 91 25 26 34",
    "ref:FR:museofile": "M0914",
    "source": "Ministère de la Culture - Muséofile - 11/2020",
    "tourism": "museum",
    "wheelchair": "yes",
    "wikidata": "Q16928705"
  },
  {
    "id": 2499522058,
    "type": "node",
    "latitude": 43.2975573,
    "longitude": 5.3756864,
    "addr:housenumber": "2",
    "addr:postcode": "13001",
    "addr:street": "Rue Henri Barbusse",
    "contact:housenumber": "2",
    "contact:street": "rue Henri-Barbusse",
    "level": "-1",
    "name": "Musée d'histoire de Marseille",
    "name:en": "Marseille History Museum",
    "name:fr": "Musée d'histoire de Marseille",
    "name:oc": "Musèu d'istòria de Marselha",
    "name:sv": "Marseilles historiska museum",
    "opening_hours": "Tu-Su 10:00-18:00",
    "operator": "Ville de Marseille",
    "phone": "+33 4 91 55 36 00",
    "ref:FR:museofile": "M0918",
    "source": "Ministère de la Culture - Muséofile - 09/2019",
    "source:name:oc": "ieo-bdtopoc",
    "tourism": "museum",
    "website": "https://musee-histoire-marseille-voie-historique.fr/",
    "wikidata": "Q3329666",
    "wikipedia": "fr:Musée d'histoire de Marseille"
  },
  {
    "id": 2598867528,
    "type": "node",
    "latitude": 43.352105,
    "longitude": 5.4386437,
    "addr:housenumber": "5",
    "name": "Musée des Arts et Traditions populaires du terroir marseillais",
    "name:oc": "Musèu deis Arts e dei Tradicions popularas dau Terrador marselhés",
    "source:name:oc": "ieo-bdtopoc",
    "start_date": "1928",
    "tourism": "museum",
    "website": "https://www.espace-pignol.com/"
  },
  {
    "id": 2860728336,
    "type": "node",
    "latitude": 43.1829691,
    "longitude": 5.5978028,
    "historic": "monument",
    "name": "Stèle du 24 Avril 1915"
  },
  {
    "id": 3049694609,
    "type": "node",
    "latitude": 43.2927904,
    "longitude": 5.5663618,
    "name": "Maison natale de Marcel Pagnol",
    "tourism": "museum"
  },
  {
    "id": 3307822689,
    "type": "node",
    "latitude": 43.3742433,
    "longitude": 5.4147691,
    "name": "Four de l'Aiga",
    "name:oc": "Forn de l'Aiga",
    "source": "Cadastre",
    "source:name:oc": "ieo-bdtopoc",
    "tourism": "attraction"
  },
  {
    "id": 4227795989,
    "type": "node",
    "latitude": 43.3705056,
    "longitude": 5.5370577,
    "comment": "< oc Pueg Auri 1299",
    "name": "Parc Départemental de Pichauris",
    "name:oc": "Pargue Departementau dau Pueg Auri",
    "source:name:oc": "ieo-bdtopoc",
    "tourism": "attraction"
  },
  {
    "id": 4352924099,
    "type": "node",
    "latitude": 43.3093019,
    "longitude": 5.3906787,
    "description": "la volta del tunnel che passa al di sotto della ferrovia è ricoperta di decorazioni",
    "fee": "no",
    "fixme:wheelchair": "yes",
    "name": "Art tunnel",
    "tourism": "gallery"
  },
  {
    "id": 4425058138,
    "type": "node",
    "latitude": 43.2927712,
    "longitude": 5.3694744,
    "addr:city": "Marseille",
    "addr:housenumber": "25",
    "fee": "yes",
    "name": "Le Musée du Savon",
    "name:oc": "Musèu dau Sabon",
    "source:name:oc": "ieo-bdtopoc",
    "tourism": "museum"
  },
  {
    "id": 4535338292,
    "type": "node",
    "latitude": 43.302642,
    "longitude": 5.4037507,
    "addr:housenumber": "11-19",
    "email": "CHATEAUDESERVIERES@GMAIL.COM",
    "fee": "yes",
    "name": "Château de Servières",
    "opening_hours": "Tu-Sa 14:00-18:00",
    "phone": "+33 4 91 85 42 78",
    "tourism": "gallery",
    "website": "https://chateaudeservieres.org/",
    "wheelchair": "no"
  },
  {
    "id": 4540200492,
    "type": "node",
    "latitude": 43.2920732,
    "longitude": 5.3730967,
    "contact:housenumber": "56",
    "contact:street": "Rue Sainte",
    "name": "Galerie Association d'idées",
    "tourism": "gallery",
    "website": "http://galerieassociationdidees.tumblr.com"
  },
  {
    "id": 4540200493,
    "type": "node",
    "latitude": 43.2915379,
    "longitude": 5.3865121,
    "addr:postcode": "13006",
    "addr:street": "Rue de La Loubière",
    "email": "artccessible@gmail.com",
    "name": "Galerie Territoires Partagés",
    "opening_hours": "Th-Sa 14:00-18:30",
    "phone": "+33688162111",
    "tourism": "gallery",
    "website": "http://www.artccessible-territoires-partages.blogspot.com"
  },
  {
    "id": 4540212901,
    "type": "node",
    "latitude": 43.2921526,
    "longitude": 5.38541,
    "contact:housenumber": "25",
    "contact:street": "Rue Fontange",
    "email": "contact@galerieho.com",
    "name": "Galerie Ho",
    "opening_hours": "Tu-Sa 10:00-19:00",
    "phone": "+33491482992",
    "tourism": "gallery",
    "website": "http://www.galerieho.com"
  },
  {
    "id": 4540212902,
    "type": "node",
    "latitude": 43.2900306,
    "longitude": 5.390251,
    "addr:housenumber": "81",
    "email": "artspacetank@gmail.com",
    "name": "Tank Art Space",
    "phone": "+33689522129",
    "tourism": "gallery",
    "website": "https://www.artspace-tank.com/"
  },
  {
    "id": 4540224491,
    "type": "node",
    "latitude": 43.2909056,
    "longitude": 5.3672442,
    "contact:housenumber": "122",
    "contact:street": "Rue Sainte",
    "email": "contact@galerie-bea-ba.com",
    "name": "Galerie Béa-ba",
    "opening_hours": "We-Sa 14:00-19:00",
    "phone": "+33967256889",
    "tourism": "gallery",
    "website": "http://www.galerie-bea-ba.com"
  },
  {
    "id": 4540240792,
    "type": "node",
    "latitude": 43.2608478,
    "longitude": 5.3962644,
    "addr:postcode": "13008",
    "name": "Cellule 516",
    "phone": "+33953504465",
    "tourism": "museum"
  },
  {
    "id": 4540240793,
    "type": "node",
    "latitude": 43.2912667,
    "longitude": 5.3840788,
    "addr:housenumber": "17",
    "email": "contact@straatgalerie.com",
    "name": "Straat Galerie",
    "opening_hours": "We-Fr 16:00-19:00; Sa 11:00-19:00",
    "phone": "+33698221038",
    "tourism": "gallery",
    "website": "http://www.straatgalerie.com"
  },
  {
    "id": 4540240794,
    "type": "node",
    "latitude": 43.2960054,
    "longitude": 5.386121,
    "contact:housenumber": "35",
    "contact:street": "Rue de la Bibliothèque",
    "email": "contact@art-cade.org",
    "fee": "no",
    "name": "Art-cade*",
    "opening_hours": "Tu-Sa 15:00-19:00",
    "phone": "+33491478792",
    "tourism": "gallery",
    "website": "http://www.art-cade.org"
  },
  {
    "id": 4540240796,
    "type": "node",
    "latitude": 43.3044685,
    "longitude": 5.3924732,
    "email": "rendezvous@lagad.eu",
    "name": "La Gad - Galerie Arnaud Deschin",
    "opening_hours": "24/7",
    "phone": "+33675672096",
    "tourism": "gallery",
    "website": "http://www.lagad.eu"
  },
  {
    "id": 4540247390,
    "type": "node",
    "latitude": 43.2913895,
    "longitude": 5.3720597,
    "addr:housenumber": "43",
    "email": "jfm.galerie@free.fr",
    "name": "Galery Meyer",
    "opening_hours": "Tu-Sa 15:00-19:00",
    "phone": "+33491339501",
    "tourism": "gallery"
  },
  {
    "id": 4540263590,
    "type": "node",
    "latitude": 43.3008282,
    "longitude": 5.3910715,
    "contact:housenumber": "96",
    "contact:street": "Boulevard de la Libération Général de Monsabert",
    "email": "galerieporteavion@gmail.com",
    "name": "Galerie Porte Avion",
    "opening_hours": "Tu-Sa 15:00-19:00",
    "phone": "+33491335200",
    "tourism": "gallery",
    "website": "https://www.galerieporteavion.org/"
  },
  {
    "id": 4540263689,
    "type": "node",
    "latitude": 43.2857278,
    "longitude": 5.3799165,
    "contact:housenumber": "152",
    "contact:street": "Rue Paradis",
    "email": "ounousecrire@club-internet.fr",
    "name": "Où Galerie Paradis",
    "phone": "+33698890326",
    "tourism": "gallery",
    "website": "http://www.marseilleexpos.com/?page_id=3068"
  },
  {
    "id": 4540263690,
    "type": "node",
    "latitude": 43.3029835,
    "longitude": 5.3902493,
    "contact:housenumber": "58",
    "contact:street": "Rue Jean de Bernardy",
    "email": "ounousecrire@club-internet.fr",
    "name": "Où - lieu d'exposition pour l'art actuel",
    "opening_hours": "Th-Sa 16:00-19:00",
    "phone": "+33698890326",
    "tourism": "gallery",
    "website": "https://www.ou-marseille.com/"
  },
  {
    "id": 4540263890,
    "type": "node",
    "latitude": 43.3028368,
    "longitude": 5.372325,
    "contact:housenumber": "7",
    "contact:street": "Rue Duverger",
    "email": "contact@galeriego.com",
    "name": "Galerie Gourvennec Ogor",
    "opening_hours": "Tu-Sa 10:00-13:00, 15:00-19:00",
    "phone": "+33668114806",
    "tourism": "gallery",
    "website": "https://www.galeriego.com/"
  },
  {
    "id": 4540264289,
    "type": "node",
    "latitude": 43.3030688,
    "longitude": 5.3696108,
    "contact:housenumber": "72",
    "contact:street": "Rue de la Joliette",
    "email": "espacegt@gmail.com",
    "name": "Espace Exposition GT",
    "opening_hours": "Mo-We 11:00-15:00; Th-Fr 11:00-15:00, 19:00-23:00; Sa 19:00-23:00",
    "phone": "+33652402491",
    "tourism": "gallery",
    "website": "http://espacegt.free.fr"
  },
  {
    "id": 4540266291,
    "type": "node",
    "latitude": 43.2806358,
    "longitude": 5.3555266,
    "addr:housenumber": "54",
    "email": "the.american.gallery@free.fr",
    "name": "American Gallery",
    "opening_hours": "Th-Sa 14:00-19:00",
    "phone": "+33627282860",
    "tourism": "gallery"
  },
  {
    "id": 4818537222,
    "type": "node",
    "latitude": 43.4212222,
    "longitude": 5.564677,
    "name": "Circuit automobile",
    "name:fr": "Circuit automobile",
    "tourism": "attraction"
  },
  {
    "id": 4945717658,
    "type": "node",
    "latitude": 43.301009,
    "longitude": 5.3681139,
    "contact:email": "dgac-maaoa@marseille.fr",
    "contact:housenumber": "2",
    "contact:phone": "+33 4 91145838",
    "contact:place": "Centre de la Vieille Charité",
    "contact:street": "Rue de la Charité",
    "description": "Le MAAOA présente des œuvres provenant d'Afrique (masques et reliquaires), d'Océanie (crânes et de masques de danse) et d'Amérique (statuettes, poupées et masques)",
    "level": "2",
    "name": "Musée des Arts Africains, Océaniens, Amérindiens",
    "name:en": "Museum of African, Native American and Oceanian Arts",
    "official_name": "Musée des Arts Africains, Océaniens et Amérindiens",
    "opening_hours": "May 16-Sep 17 Tu-Mo 13:00-19:00;Sep 18-May 15 Tu-Mo 13:00-18:00;Jan 01 off;May 01 off;Nov 01 off;Nov 11 off;Dec 25-26 off",
    "operator": "Ville de Marseille, Direction des musées",
    "phone": "+33 4 91 14 58 38",
    "ref:FR:museofile": "M0920",
    "short_name": "MAAOA",
    "source": "survey",
    "tourism": "museum",
    "website": "https://culture.marseille.fr/node/630",
    "wheelchair": "yes",
    "wikidata": "Q3330157",
    "wikipedia": "fr:Musée des arts africains, océaniens et amérindiens"
  },
  {
    "id": 4945719803,
    "type": "node",
    "latitude": 43.3005836,
    "longitude": 5.3682814,
    "addr:housenumber": "2",
    "addr:postcode": "13002",
    "addr:street": "Rue de la Charité",
    "contact:email": "dgac-museearcheologie@marseille.fr",
    "contact:housenumber": "2",
    "contact:phone": "+33 4 91 14 58 97",
    "contact:place": "Centre de la Vieille Charité",
    "contact:street": "Rue de la Charité",
    "description": "Le musée d'archéologie méditerranéenne présente des collections d’antiquités égyptiennes et d’antiquités classiques (civilisations étrusques et romaines, civilisation grecque, civilisations du Proche et Moyen-Orient)",
    "level": "1",
    "name": "Musée d'Archéologie Méditerranéenne",
    "name:en": "Museum of Mediterranean Archaeology",
    "name:oc": "Musèu Arceologic mediterranenc",
    "opening_hours": "Tu-Su 09:00-18:00; Jan 01 off; May 01 off; Nov 01 off; Nov 11 off; Dec 25 off",
    "operator": "Ville de Marseille, Direction des musées",
    "phone": "+33 4 91 14 58 97",
    "ref:FR:museofile": "M0919",
    "source": "survey",
    "source:name:oc": "ieo-bdtopoc",
    "tourism": "museum",
    "website": "https://musees.marseille.fr/musee-darcheologie-mediterraneenne-mam",
    "wheelchair": "yes",
    "wikidata": "Q1795927",
    "wikipedia": "fr:Musée d'archéologie méditerranéenne"
  },
  {
    "id": 5101716090,
    "type": "node",
    "latitude": 43.1878588,
    "longitude": 5.6168867,
    "heritage": "3",
    "heritage:operator": "mhs",
    "mhs:inscription_date": "1996-02-12",
    "name": "Palais Lumière",
    "ref:mhs": "PA13000006",
    "source:heritage": "data.gouv.fr:Ministère de la Culture - 04/2015",
    "tourism": "attraction",
    "wikidata": "Q22995615",
    "wikipedia": "fr:Palais Lumière"
  },
  {
    "id": 5183645899,
    "type": "node",
    "latitude": 43.2987839,
    "longitude": 5.3723276,
    "fee": "no",
    "name": "Fine Art Invest",
    "tourism": "gallery"
  },
  {
    "id": 5295680900,
    "type": "node",
    "latitude": 43.292991,
    "longitude": 5.5710487,
    "addr:city": "Aubagne",
    "addr:postcode": "13400",
    "addr:street": "Cours de Clastres",
    "name": "La cité de l'art santonnier Thèrese Neveu",
    "tourism": "museum"
  },
  {
    "id": 5327779652,
    "type": "node",
    "latitude": 43.2122117,
    "longitude": 5.5437881,
    "name": "La Savonnerie de Cassis",
    "tourism": "attraction"
  },
  {
    "id": 6220986985,
    "type": "node",
    "latitude": 43.2147803,
    "longitude": 5.5377611,
    "addr:postcode": "13260",
    "addr:street": "Rue Thérèse Rastit",
    "name": "Four Banal",
    "phone": "+33442013994",
    "tourism": "attraction"
  },
  {
    "id": 6345209974,
    "type": "node",
    "latitude": 43.291799,
    "longitude": 5.3758261,
    "addr:city": "Marseille",
    "addr:housenumber": "53",
    "name": "David Pluskwa Contemporary Art",
    "tourism": "gallery",
    "website": "https://david-pluskwa.com/"
  },
  {
    "id": 6352457749,
    "type": "node",
    "latitude": 43.2937235,
    "longitude": 5.3817382,
    "name": "L'Alelier des Arts",
    "tourism": "gallery"
  },
  {
    "id": 6430056682,
    "type": "node",
    "latitude": 43.2163627,
    "longitude": 5.4393933,
    "name": "La Roche Percée",
    "name:oc": "La Ròca Traucada",
    "source:name:oc": "ieo-bdtopoc",
    "tourism": "attraction"
  },
  {
    "id": 6431073405,
    "type": "node",
    "latitude": 43.2959881,
    "longitude": 5.3687385,
    "name:en": "ColorBus Bus Stop",
    "tourism": "attraction"
  },
  {
    "id": 6518223052,
    "type": "node",
    "latitude": 43.2857738,
    "longitude": 5.3813044,
    "addr:city": "Marseille",
    "addr:housenumber": "60",
    "name": "Sylvie Adaoust",
    "tourism": "gallery"
  },
  {
    "id": 6691730808,
    "type": "node",
    "latitude": 43.2930621,
    "longitude": 5.5711512,
    "name": "Le Petit Monde de Marcel Pagnol",
    "opening_hours": "Tu-Sa 10:00-12:30, 14:00-18:00",
    "source": "cadastre-dgi-fr source : Direction Générale des Impôts - Cadastre. Mise à jour : 2018",
    "tourism": "museum",
    "website": "https://www.tourisme-paysdaubagne.fr/fr/petit-monde-de-marcel-pagnol",
    "wheelchair": "yes"
  },
  {
    "id": 7054970470,
    "type": "node",
    "latitude": 43.2967837,
    "longitude": 5.3841778,
    "tourism": "gallery"
  },
  {
    "id": 7644549772,
    "type": "node",
    "latitude": 43.3354416,
    "longitude": 5.4844695,
    "name": "Vieux Bassin",
    "tourism": "gallery"
  },
  {
    "id": 7663274279,
    "type": "node",
    "latitude": 43.2813441,
    "longitude": 5.5145748,
    "denomination": "catholic",
    "historic": "wayside_cross",
    "religion": "christian",
    "start_date": "1897",
    "tourism": "attraction"
  },
  {
    "id": 7904772588,
    "type": "node",
    "latitude": 43.2956458,
    "longitude": 5.3664384,
    "addr:housenumber": "174",
    "email": "contact@petittrainmarseille.com",
    "name": "Petit Train de Marseille",
    "name:es": "Pequeño Tren de Marsella",
    "name:oc": "Trenet de Marselha",
    "opening_hours": "Mo-Su 10:00-12:20",
    "phone": "+33491252469",
    "source:name:oc": "ieo-bdtopoc",
    "tourism": "attraction",
    "website": "https://www.petit-train-marseille.com/",
    "wheelchair": "no"
  },
  {
    "id": 9077999917,
    "type": "node",
    "latitude": 43.2946952,
    "longitude": 5.3837827,
    "name": "Galerie Dos Mares",
    "tourism": "museum"
  },
  {
    "id": 9433580046,
    "type": "node",
    "latitude": 43.2682116,
    "longitude": 5.7294139,
    "attraction": "show",
    "leisure": "horse_riding",
    "name": "Tombstone - Théâtre équestre",
    "tourism": "attraction"
  },
  {
    "id": 9507817091,
    "type": "node",
    "latitude": 43.2876453,
    "longitude": 5.3770402,
    "name": "Najima",
    "tourism": "gallery"
  },
  {
    "id": 9516548603,
    "type": "node",
    "latitude": 43.2864692,
    "longitude": 5.378244,
    "addr:housenumber": "3",
    "addr:street": "Impasse de Montevideo",
    "name": "Montevideo",
    "opening_hours": "Mo-Fr 10:00-18:00",
    "tourism": "gallery",
    "website": "https://www.montevideo-marseille.com/"
  },
  {
    "id": 9658660673,
    "type": "node",
    "latitude": 43.2643072,
    "longitude": 5.4137379,
    "fixme": "préciser position",
    "name": "Conservatoire du Patrimoine Médical de Marseille",
    "source": "data.gouv.fr:DATAtourisme - 05/2020",
    "tourism": "museum",
    "wheelchair": "no"
  },
  {
    "id": 9800972121,
    "type": "node",
    "latitude": 43.2972614,
    "longitude": 5.3619941,
    "description": "reconstitution de la grotte Cosquer",
    "fee": "yes",
    "museum": "archaeological",
    "name": "Grotte Cosquer",
    "opening_hours": "Mo-Su 09:30-19:30",
    "start_date": "2022-06",
    "tourism": "museum",
    "website": "https://www.grotte-cosquer.com/",
    "wikipedia": "fr:Cosquer_Méditerranée"
  },
  {
    "id": 9928878755,
    "type": "node",
    "latitude": 43.2950042,
    "longitude": 5.3890567,
    "fee": "no",
    "name": "Mad",
    "tourism": "gallery"
  },
  {
    "id": 10067062636,
    "type": "node",
    "latitude": 43.214758,
    "longitude": 5.4394276,
    "description": "Un pointu Marseillais posé à l'entrée du hameau de Morgiou et indiquant l'entrée dans la calanque.",
    "tourism": "attraction"
  },
  {
    "id": 10307301836,
    "type": "node",
    "latitude": 43.2195845,
    "longitude": 5.4189725,
    "historic": "monument",
    "inscription": "En defendant la Forêt Provençale, Jean-Pierre MALAVASI et Michel ALVAREL, du Bataillon des Marins-Pompiers de la Ville de Marseille, ont peri lors de l'Incendie des Calanques, le 18 Août 1979. Souvenez-vous.",
    "name": "Monument à Jean-Pierre Malavasi et Michel Alvarel"
  },
  {
    "id": 10548539009,
    "type": "node",
    "latitude": 43.2052874,
    "longitude": 5.5134059,
    "name": "Point de saut en falaise",
    "name:de": "Klippenspringen",
    "name:en": "Cliff jumping point",
    "tourism": "attraction"
  },
  {
    "id": 10795262605,
    "type": "node",
    "latitude": 43.2110894,
    "longitude": 5.4507245,
    "name": "Acces grotte bleue",
    "tourism": "attraction",
    "wheelchair": "no"
  },
  {
    "id": 10795292205,
    "type": "node",
    "latitude": 43.2111274,
    "longitude": 5.4493643,
    "name": "Acces grotte bleue",
    "tourism": "attraction",
    "wheelchair": "no"
  },
  {
    "id": 10930606755,
    "type": "node",
    "latitude": 43.2939869,
    "longitude": 5.3861425,
    "addr:city": "Marseille",
    "addr:housenumber": "1",
    "addr:postcode": "13006",
    "addr:street": "Rue Ferdinand Rey",
    "contact:twitter": "Artlessgallery",
    "currency:XBT": "yes",
    "name": "Artless Gallery & English Bookstore",
    "payment:lightning": "yes",
    "payment:lightning_contactless": "yes",
    "payment:onchain": "yes",
    "survey:date": "2023-05-27",
    "tourism": "gallery",
    "website": "artlessgallery"
  },
  {
    "id": 10997305333,
    "type": "node",
    "latitude": 43.176178,
    "longitude": 5.6076316,
    "historic": "monument",
    "name": "Déclaration des droit de l'homme et du citoyen"
  },
  {
    "id": 11069911305,
    "type": "node",
    "latitude": 43.2278073,
    "longitude": 5.3492394,
    "name:en": "Steps down to cove",
    "tourism": "attraction"
  },
  {
    "id": 11187769290,
    "type": "node",
    "latitude": 43.1724358,
    "longitude": 5.607189,
    "fee": "no",
    "name": "Maison de la Construction Navale",
    "opening_hours": "Jun 21-Jul 8, Aug 21-Sep 30: Mo-Sa 09:00-17:30; Jul 11-Aug 19: Tu-Sa 15:15-22:00",
    "tourism": "museum"
  },
  {
    "id": 11190551203,
    "type": "node",
    "latitude": 43.2464038,
    "longitude": 5.4029418,
    "fee": "no",
    "name": "Terre des Calanques",
    "tourism": "gallery"
  },
  {
    "id": 11201960202,
    "type": "node",
    "latitude": 43.284269,
    "longitude": 5.3712185,
    "name": "Musée de Notre-Dame de la Garde",
    "source": "data.gouv.fr:DATAtourisme - 05/2020",
    "tourism": "museum",
    "wheelchair": "no"
  },
  {
    "id": 11201960208,
    "type": "node",
    "latitude": 43.3102039,
    "longitude": 5.3906907,
    "name": "Tour Panorama",
    "source": "data.gouv.fr:DATAtourisme - 05/2020",
    "tourism": "museum",
    "wheelchair": "no"
  },
  {
    "id": 11201960209,
    "type": "node",
    "latitude": 43.3549299,
    "longitude": 5.3629621,
    "name": "Musée du Savon de Marseille",
    "source": "data.gouv.fr:DATAtourisme - 05/2020",
    "tourism": "museum",
    "wheelchair": "no"
  },
  {
    "id": 11492622969,
    "type": "node",
    "latitude": 43.1755714,
    "longitude": 5.602266,
    "addr:street": "Boulevard Michelet",
    "name": "Chapelle de l'OEuvre de Jeunesse",
    "tourism": "attraction"
  },
  {
    "id": 11503759074,
    "type": "node",
    "latitude": 43.2997665,
    "longitude": 5.3667819,
    "tourism": "gallery"
  },
  {
    "id": 11672965434,
    "type": "node",
    "latitude": 43.2946912,
    "longitude": 5.5651269,
    "fee": "no",
    "name": "Le village des santons en Provence",
    "operator": "city",
    "operator:type": "public",
    "tourism": "museum"
  },
  {
    "id": 11932608058,
    "type": "node",
    "latitude": 43.2968727,
    "longitude": 5.3722626,
    "name": "Galerie d'Art",
    "tourism": "gallery"
  },
  {
    "id": 12095263301,
    "type": "node",
    "latitude": 43.1816888,
    "longitude": 5.6682295,
    "name": "Plage du Liouquet",
    "tourism": "attraction"
  },
  {
    "id": 12117342348,
    "type": "node",
    "latitude": 43.2968008,
    "longitude": 5.3784232,
    "name": "La Savonnerie Marseillaise",
    "tourism": "attraction"
  },
  {
    "id": 12296103140,
    "type": "node",
    "latitude": 43.29858,
    "longitude": 5.3640511,
    "name": "Musée de l'illusion",
    "tourism": "museum"
  },
  {
    "id": 12345727068,
    "type": "node",
    "latitude": 43.2902156,
    "longitude": 5.3653039,
    "charge": "2 EUR",
    "fee": "donation",
    "historic": "tomb",
    "name": "La crypte de Saint-Victor",
    "opening_hours": "09:00-18:00",
    "tomb": "crypt",
    "tourism": "attraction",
    "website": "https://www.marseille-tourisme.com/decouvrez-marseille/culture-et-patrimoine/abbaye-saint-victor-marseille-7eme-fr-2799573/"
  }
]