[
  {
    "id": 279711473,
    "type": "node",
    "latitude": 44.8409508,
    "longitude": -0.569812,
    "addr:housenumber": "1",
    "addr:street": "Place de la Bourse",
    "check_date": "2025-03-29",
    "contact:facebook": "Museenationaldesdouanes",
    "contact:instagram": "museenationaldesdouanes",
    "contact:twitter": "douanesmusee",
    "fee": "yes",
    "name": "Musée national des Douanes",
    "name:de": "Nationales Zollmuseum",
    "name:en": "National Customs Museum",
    "opening_hours": "Tu-Su 10:00-18:00",
    "phone": "+33 9 70 27 57 66",
    "ref:FR:NAF": "91.02Z",
    "ref:FR:SIREN": "120023015",
    "ref:FR:SIRET": "12002301500049",
    "source": "INSEE - 2025-02",
    "tourism": "museum",
    "website": "https://musee-douanes.fr",
    "wikidata": "Q3330717"
  },
  {
    "id": 428854449,
    "type": "node",
    "latitude": 44.6809272,
    "longitude": -0.5274265,
    "historic": "monument",
    "name": "Charles de Secondat",
    "note": "Baron de Montesquieu 1689-1755",
    "source": "cadastre-dgi-fr source : Direction Générale des Impôts - Cadastre. Mise à jour : 2009"
  },
  {
    "id": 656508097,
    "type": "node",
    "latitude": 44.8331238,
    "longitude": -0.5618451,
    "barrier": "sally_port",
    "direction": "NE",
    "heritage": "3",
    "heritage:operator": "mhs",
    "historic": "city_gate",
    "mhs:inscription_date": "1965",
    "name": "Porte de la Monnaie",
    "ref:mhs": "PA00083476",
    "survey:date": "2022-09-13",
    "tourism": "attraction",
    "wheelchair": "yes",
    "wikidata": "Q3399134",
    "wikipedia": "fr:Porte de la Monnaie"
  },
  {
    "id": 665791244,
    "type": "node",
    "latitude": 44.9615953,
    "longitude": -0.6519298,
    "historic": "monument",
    "name": "Moulin de l'Étu"
  },
  {
    "id": 764700659,
    "type": "node",
    "latitude": 44.8345756,
    "longitude": -0.5710889,
    "name": "Hôpital Saint-James",
    "pilgrimage": "yes",
    "religion": "christian",
    "tourism": "attraction",
    "wheelchair": "yes"
  },
  {
    "id": 1243824705,
    "type": "node",
    "latitude": 44.9020521,
    "longitude": -0.6459742,
    "name": "Grottes artificielles",
    "survey:date": "2022-02-20",
    "tourism": "attraction"
  },
  {
    "id": 1244833338,
    "type": "node",
    "latitude": 44.8991145,
    "longitude": -0.6433711,
    "name": "Embarcadère de la Lyre",
    "tourism": "attraction"
  },
  {
    "id": 1310602878,
    "type": "node",
    "latitude": 44.83098,
    "longitude": -0.5700867,
    "addr:city": "Bordeaux",
    "addr:housenumber": "3 ter",
    "addr:postcode": "33076",
    "addr:street": "Place de la Victoire",
    "fee": "yes",
    "name": "Musée d'ethnographie de l'Université de Bordeaux",
    "opening_hours": "Mo-Th 14:00-18:00; Fr 10:00-12:00",
    "operator": "Université de Bordeaux",
    "tourism": "museum",
    "website": "https://meb.u-bordeaux.fr/"
  },
  {
    "id": 1400443981,
    "type": "node",
    "latitude": 44.9022536,
    "longitude": -0.6465136,
    "name": "Cascade",
    "survey:date": "2022-02-20",
    "tourism": "attraction"
  },
  {
    "id": 1781703740,
    "type": "node",
    "latitude": 44.7820145,
    "longitude": -0.4115399,
    "name": "Maison de la Poterie",
    "tourism": "museum",
    "website": "https://maisonpoteriesadirac.fr/"
  },
  {
    "id": 1828291812,
    "type": "node",
    "latitude": 44.7971178,
    "longitude": -0.4296949,
    "historic": "monument",
    "name": "Vieux lavoir"
  },
  {
    "id": 2123021868,
    "type": "node",
    "latitude": 44.7403629,
    "longitude": -0.5082645,
    "name": "La Ferme Exotique",
    "tourism": "attraction",
    "website": "http://www.fermeexotique.com/"
  },
  {
    "id": 2509161468,
    "type": "node",
    "latitude": 44.8642479,
    "longitude": -0.5494813,
    "name": "Les Vivres de l'Art",
    "opening_hours": "Mo-Fr 10:00-12:30,14:00-18:00",
    "tourism": "gallery",
    "website": "https://lesvivresdelart.org/"
  },
  {
    "id": 2519806773,
    "type": "node",
    "latitude": 44.8454593,
    "longitude": -0.5761396,
    "name": "Galerie D.X",
    "tourism": "gallery"
  },
  {
    "id": 2524280788,
    "type": "node",
    "latitude": 44.8480151,
    "longitude": -0.5723711,
    "name": "Cortex Athletico",
    "survey:date": "2023-12-09",
    "tourism": "gallery"
  },
  {
    "id": 2543184818,
    "type": "node",
    "latitude": 44.8539533,
    "longitude": -0.5890737,
    "information": "office",
    "name": "Institut Culturel Bernard Magrez",
    "phone": "+33 5 56 44 49 24",
    "source": "Observatoire du comité départemental du Tourisme de la Gironde - 09/2013",
    "tourism": "museum",
    "website": "https://www.institut-bernard-magrez.com/"
  },
  {
    "id": 2659439284,
    "type": "node",
    "latitude": 44.8380737,
    "longitude": -0.5770712,
    "addr:postcode": "33000",
    "artist_name": "Jean Cardot",
    "historic": "monument",
    "name": "Statue de Jacques Chaban-Delmas",
    "name:en": "Statue of Jacques Chaban-Delmas",
    "start_date": "2012"
  },
  {
    "id": 2809611375,
    "type": "node",
    "latitude": 44.8240142,
    "longitude": -0.5646371,
    "information": "office",
    "name": "Musée des Compagnons du Tour de France",
    "phone": "+33 5 56 92 05 17",
    "source": "Observatoire du comité départemental du Tourisme de la Gironde - 09/2013",
    "tourism": "museum",
    "website": "www.compagnons.org"
  },
  {
    "id": 2809611376,
    "type": "node",
    "latitude": 44.854628,
    "longitude": -0.5693905,
    "addr:housenumber": "41",
    "addr:postcode": "33300",
    "addr:street": "Rue Borie",
    "information": "office",
    "name": "Musée du Vin et du Négoce",
    "opening_hours": "Mo-Su 10:00-18:00",
    "phone": "+33 5 56 90 19 13",
    "source": "Observatoire du comité départemental du Tourisme de la Gironde - 09/2013",
    "tourism": "museum",
    "website": "https://www.museeduvinbordeaux.com/",
    "wheelchair": "yes"
  },
  {
    "id": 2811564128,
    "type": "node",
    "latitude": 44.8310106,
    "longitude": -0.562044,
    "heritage:operator": "mhs",
    "mhs:inscription_date": "1965",
    "name": "Immeuble (vestige du Noviciat des Jésuites)",
    "note": "19",
    "ref:mhs": "PA00083282",
    "source": "data.gouv.fr:Ministère de la Culture - 08/2011",
    "tourism": "attraction",
    "wikidata": "Q22988665"
  },
  {
    "id": 2811625754,
    "type": "node",
    "latitude": 44.8483574,
    "longitude": -0.5800915,
    "heritage": "3",
    "heritage:operator": "mhs",
    "mhs:inscription_date": "1935",
    "name": "Hôtel Lisleferme",
    "ref:mhs": "PA00083198",
    "source": "data.gouv.fr:Ministère de la Culture - 08/2011",
    "source:heritage": "data.gouv.fr:Ministère de la Culture - 04/2015",
    "tourism": "attraction",
    "wikidata": "Q22988381",
    "wikipedia": "fr:Hôtel Lisleferme"
  },
  {
    "id": 2969991659,
    "type": "node",
    "latitude": 44.8365147,
    "longitude": -0.5998722,
    "name": "La Galerie Sixteen",
    "tourism": "gallery",
    "website": "https://www.lagaleriesixteen.fr/"
  },
  {
    "id": 3283530890,
    "type": "node",
    "latitude": 44.8808406,
    "longitude": -0.6534833,
    "email": "centredart@eysines.fr",
    "name": "Centre d'art contemporain",
    "phone": "+33556286905",
    "tourism": "museum",
    "website": "https://www.eysines-culture.fr/les-lieux/centre-dart-contemporain/"
  },
  {
    "id": 3308003039,
    "type": "node",
    "latitude": 44.874706,
    "longitude": -0.6518603,
    "historic": "monument",
    "name": "Hommage aux victimes de la catastrophe aérienne du 21/12/1987"
  },
  {
    "id": 3358060528,
    "type": "node",
    "latitude": 44.8972758,
    "longitude": -0.4974877,
    "historic": "monument",
    "name": "Croix de Queyrut"
  },
  {
    "id": 3416203538,
    "type": "node",
    "latitude": 44.7881204,
    "longitude": -0.6550901,
    "addr:city": "Pessac",
    "addr:housenumber": "132",
    "addr:postcode": "33600",
    "addr:street": "Avenue du Haut-Lévêque",
    "amenity": "restaurant",
    "capacity": "80",
    "cuisine": "regional;french",
    "internet_access": "wlan",
    "name": "Le Serpolet",
    "opening_hours": "Mo-Fr 12:00-14:00, Mo-Sa 19:30-22:00",
    "outdoor_seating": "yes",
    "payment:american_express": "yes",
    "payment:cards": "yes",
    "payment:contactless": "yes",
    "payment:credit_cards": "yes",
    "payment:mastercard": "yes",
    "payment:telephone_cards": "yes",
    "payment:visa": "yes",
    "phone": "+33 5 56 36 56 32",
    "smoking": "outside",
    "takeaway": "no",
    "tourism": "attraction",
    "website": "https://restaurantleserpolet.com/",
    "wheelchair": "yes"
  },
  {
    "id": 3594413014,
    "type": "node",
    "latitude": 44.9094977,
    "longitude": -0.6312364,
    "museum": "history",
    "name": "Maison du Patrimoine",
    "source": "Observatoire du comité départemental du Tourisme de la Gironde - 09/2013",
    "tourism": "museum",
    "website": "http://gahble.org/maison-du-patrimoine"
  },
  {
    "id": 3701199652,
    "type": "node",
    "latitude": 44.8436119,
    "longitude": -0.5747909,
    "addr:city": "Bordeaux",
    "addr:country": "FR",
    "addr:housenumber": "1",
    "addr:postcode": "33000",
    "addr:street": "Cours du 30 Juillet",
    "name": "Maison du Vin",
    "tourism": "attraction"
  },
  {
    "id": 4240849125,
    "type": "node",
    "latitude": 44.8383691,
    "longitude": -0.5776255,
    "information": "tactile_model",
    "name": "Maqueta centro Burdeos - Stadt in Mini",
    "tourism": "attraction"
  },
  {
    "id": 5088400121,
    "type": "node",
    "latitude": 44.8590934,
    "longitude": -0.5915243,
    "name": "Parc Marceau",
    "tourism": "attraction",
    "wheelchair": "yes"
  },
  {
    "id": 5338503724,
    "type": "node",
    "latitude": 44.84598,
    "longitude": -0.5761674,
    "addr:housenumber": "3",
    "addr:street": "Rue d'Enghien",
    "name": "Bordovino",
    "tourism": "attraction",
    "website": "https://www.bordovino.fr/"
  },
  {
    "id": 5681165723,
    "type": "node",
    "latitude": 44.8384074,
    "longitude": -0.5628662,
    "name": "Pont de pierre",
    "name:en": "Pont de pierre",
    "survey:date": "2023-01-03",
    "tourism": "attraction",
    "wheelchair": "yes",
    "wikidata": "Q1773424",
    "wikimedia_commons": "File:151_-_Le_Pont_de_Pierre_-_Bordeaux.jpg",
    "wikipedia": "fr:Pont de pierre (Bordeaux)"
  },
  {
    "id": 5686094295,
    "type": "node",
    "latitude": 44.8406427,
    "longitude": -0.5798544,
    "alt_name": "Porte Jupiter",
    "barrier": "sally_port",
    "direction": "W",
    "heritage": "2",
    "heritage:operator": "mhs",
    "historic": "city_gate",
    "mhs:inscription_date": "1921",
    "name": "Porte Dijeaux",
    "name:la": "Porta Jovis",
    "old_name": "Porte de Jau",
    "ref:mhs": "PA00083475",
    "tourism": "attraction",
    "wheelchair": "yes",
    "wikidata": "Q3398911",
    "wikipedia": "fr:Porte Dijeaux"
  },
  {
    "id": 5825837321,
    "type": "node",
    "latitude": 44.8771558,
    "longitude": -0.5256917,
    "fee": "no",
    "name": "Musée des Amis du Vieux Lormont",
    "ref:FR:CRTA": "PCUAQU033V509KSY",
    "source": "Réseau SIRTAQUI - Comité Régional de Tourisme d'Aquitaine - www.sirtaqui-aquitaine.com - 08/2018",
    "tourism": "museum",
    "website": "http://www.avl-musee.com/"
  },
  {
    "id": 5825837323,
    "type": "node",
    "latitude": 44.7959711,
    "longitude": -0.4276729,
    "name": "Musée archéologique de Lignan-de-Bordeaux",
    "ref:FR:CRTA": "PCUAQU033FS0003A",
    "source": "Réseau SIRTAQUI - Comité Régional de Tourisme d'Aquitaine - www.sirtaqui-aquitaine.com - 08/2018",
    "tourism": "museum",
    "website": "http://www.sahcc33.net"
  },
  {
    "id": 5825837335,
    "type": "node",
    "latitude": 44.6999664,
    "longitude": -0.4608087,
    "name": "Villa Maglya",
    "ref:FR:CRTA": "PCUAQU033V5080PK",
    "source": "Réseau SIRTAQUI - Comité Régional de Tourisme d'Aquitaine - www.sirtaqui-aquitaine.com - 08/2018",
    "tourism": "museum",
    "website": "http://villamaglya.fr/"
  },
  {
    "id": 5825837337,
    "type": "node",
    "latitude": 44.7038478,
    "longitude": -0.4485217,
    "name": "Les Indiennes de Beautiran",
    "ref:FR:CRTA": "PCUAQU033FS000K2",
    "source": "Réseau SIRTAQUI - Comité Régional de Tourisme d'Aquitaine - www.sirtaqui-aquitaine.com - 08/2018",
    "tourism": "museum",
    "website": "https://www.mairie-beautiran.fr/"
  },
  {
    "id": 6344611485,
    "type": "node",
    "latitude": 44.863556,
    "longitude": -0.5996728,
    "historic": "monument",
    "name": "Monument des morts du Bouscat"
  },
  {
    "id": 6419488611,
    "type": "node",
    "latitude": 44.8371932,
    "longitude": -0.6277414,
    "name": "Tour de Bourran",
    "tourism": "attraction",
    "wheelchair": "no"
  },
  {
    "id": 6912095875,
    "type": "node",
    "latitude": 44.8358149,
    "longitude": -0.5749304,
    "access": "permissive",
    "name": "Musée Goupil",
    "name:oc": "Musèu Gopil",
    "phone": "+33 5 56 01 69 42",
    "ref:FR:museofile": "M0069",
    "source": "Ministère de la Culture - Muséofile - 09/2019",
    "source:name:oc": "ieo-bdtopoc",
    "survey:date": "2023-12-23",
    "tourism": "museum",
    "website": "https://www.bordeaux.fr/p63909",
    "wikidata": "Q15818400"
  },
  {
    "id": 6918059899,
    "type": "node",
    "latitude": 44.8956703,
    "longitude": -0.717669,
    "name": "La Salamandre",
    "survey:date": "2019-10-26",
    "tourism": "attraction"
  },
  {
    "id": 7310720056,
    "type": "node",
    "latitude": 44.841496,
    "longitude": -0.5740455,
    "historic": "monument",
    "name": "Galerie Bordelaise",
    "survey:date": "2023-12-15",
    "wikidata": "Q1491855",
    "wikipedia": "fr:Galerie Bordelaise"
  },
  {
    "id": 7868798527,
    "type": "node",
    "latitude": 44.8402088,
    "longitude": -0.5781651,
    "addr:city": "Bordeaux",
    "addr:housenumber": "24",
    "addr:postcode": "33000",
    "addr:street": "Rue Vital Carles",
    "fee": "no",
    "name": "art home déco",
    "opening_hours": "Mo 14:00-19:00; Tu-Fr 11:00-19:00; Sa 10:30-19:30",
    "operator": "Art Home Déco",
    "phone": "+33556815711",
    "survey:date": "2023-06-27",
    "tourism": "gallery",
    "website": "https://www.art-home-deco.com/"
  },
  {
    "id": 7881391585,
    "type": "node",
    "latitude": 44.8048319,
    "longitude": -0.4897856,
    "name": "Florence",
    "tourism": "attraction"
  },
  {
    "id": 8006503585,
    "type": "node",
    "latitude": 44.8341402,
    "longitude": -0.5708344,
    "addr:city": "Bordeaux",
    "addr:housenumber": "44",
    "addr:postcode": "33000",
    "addr:street": "Rue Saint François",
    "name": "BAG_Bakery Art Gallery",
    "tourism": "gallery",
    "website": "https://bakeryartgallery.com/"
  },
  {
    "id": 8735945876,
    "type": "node",
    "latitude": 44.8542938,
    "longitude": -0.5689277,
    "addr:housenumber": "31",
    "addr:street": "Rue Borie",
    "museum": "history",
    "name": "Musée de l'Histoire Maritime de Bordeaux",
    "ref:FR:NAF": "91.02Z",
    "ref:FR:SIREN": "830252656",
    "ref:FR:SIRET": "83025265600012",
    "source": "INSEE - 2025-02",
    "start_date": "2017",
    "tourism": "museum",
    "website": "https://www.museehistoiremaritimedebordeaux.fr/",
    "wheelchair": "no",
    "wikidata": "Q106858161",
    "wikipedia": "fr:Musée de l'Histoire Maritime de Bordeaux"
  },
  {
    "id": 8850431658,
    "type": "node",
    "latitude": 44.8734179,
    "longitude": -0.5923986,
    "historic": "monument"
  },
  {
    "id": 8850431698,
    "type": "node",
    "latitude": 44.8764558,
    "longitude": -0.5917756,
    "historic": "monument"
  },
  {
    "id": 8882493996,
    "type": "node",
    "latitude": 44.8437219,
    "longitude": -0.6801867,
    "addr:housenumber": "74",
    "addr:street": "Avenue des Marronniers",
    "email": "cotesciencesae@cap-sciences.net",
    "name": "Côté Sciences, Air & Espace",
    "operator": "Cap Sciences",
    "phone": "+33 6 46 39 56 48",
    "tourism": "museum",
    "website": "https://www.cap-sciences.net/cote-sciences-air-espace/"
  },
  {
    "id": 9141320504,
    "type": "node",
    "latitude": 44.835501,
    "longitude": -0.520847,
    "historic": "monument"
  },
  {
    "id": 9216550654,
    "type": "node",
    "latitude": 44.8216922,
    "longitude": -0.7015953,
    "historic": "aircraft",
    "name": "avion de chasse",
    "tourism": "attraction"
  },
  {
    "id": 9216707029,
    "type": "node",
    "latitude": 44.8154723,
    "longitude": -0.7097447,
    "name": "Dassault Mirage IV",
    "tourism": "attraction"
  },
  {
    "id": 9216967530,
    "type": "node",
    "latitude": 44.8195415,
    "longitude": -0.7018144,
    "historic": "aircraft",
    "name": "avion de chasse",
    "tourism": "attraction"
  },
  {
    "id": 9378706852,
    "type": "node",
    "latitude": 44.8233763,
    "longitude": -0.5859423,
    "fee": "no",
    "name": "Couleurs Haïti",
    "tourism": "gallery",
    "website": "https://www.couleurshaiti.fr/"
  },
  {
    "id": 9378706859,
    "type": "node",
    "latitude": 44.8399124,
    "longitude": -0.5798178,
    "check_date": "2025-02-11",
    "fee": "no",
    "name": "Atelier 70",
    "operator": "Denis Leric",
    "tourism": "gallery"
  },
  {
    "id": 9510417587,
    "type": "node",
    "latitude": 44.8366672,
    "longitude": -0.5965461,
    "historic": "monument"
  },
  {
    "id": 9510417588,
    "type": "node",
    "latitude": 44.8367137,
    "longitude": -0.5959697,
    "historic": "monument"
  },
  {
    "id": 9510417589,
    "type": "node",
    "latitude": 44.8368347,
    "longitude": -0.5954942,
    "historic": "monument"
  },
  {
    "id": 9755092017,
    "type": "node",
    "latitude": 44.9024368,
    "longitude": -0.5628187,
    "name": "Jardin Japonais",
    "name:en": "Japanese garden",
    "tourism": "attraction"
  },
  {
    "id": 9755092117,
    "type": "node",
    "latitude": 44.9015833,
    "longitude": -0.5628288,
    "name": "Jardin Marocain",
    "name:en": "Moroccan garden",
    "tourism": "attraction"
  },
  {
    "id": 9963731727,
    "type": "node",
    "latitude": 44.8437752,
    "longitude": -0.5795719,
    "name": "Galerie Monbadon",
    "tourism": "gallery"
  },
  {
    "id": 10203936496,
    "type": "node",
    "latitude": 44.8369076,
    "longitude": -0.6345047,
    "name": "cascade artificielle",
    "tourism": "attraction"
  },
  {
    "id": 10664137406,
    "type": "node",
    "latitude": 44.8435507,
    "longitude": -0.397006,
    "name": "mairie",
    "tourism": "museum"
  },
  {
    "id": 10848452823,
    "type": "node",
    "latitude": 44.8285989,
    "longitude": -0.5722126,
    "addr:housenumber": "52",
    "addr:street": "Cours de la Somme",
    "fee": "no",
    "name": "Dotty sculpture",
    "tourism": "gallery"
  },
  {
    "id": 10951737442,
    "type": "node",
    "latitude": 44.8424236,
    "longitude": -0.3979778,
    "historic": "monument"
  },
  {
    "id": 11462210931,
    "type": "node",
    "latitude": 44.8390758,
    "longitude": -0.5827768,
    "name": "Musée de L'illusion",
    "tourism": "museum",
    "website": "https://museedelillusion.fr"
  },
  {
    "id": 11690354402,
    "type": "node",
    "latitude": 44.8399216,
    "longitude": -0.7298605,
    "name": "Ferme de Découverte de Mérignac",
    "tourism": "attraction"
  },
  {
    "id": 11777967894,
    "type": "node",
    "latitude": 44.8417276,
    "longitude": -0.5596008,
    "fee": "no",
    "name": "Le garage Simon",
    "tourism": "gallery"
  },
  {
    "id": 11935202033,
    "type": "node",
    "latitude": 44.9529458,
    "longitude": -0.5344999,
    "historic": "monument",
    "survey:date": "2024-05-26"
  },
  {
    "id": 12710904393,
    "type": "node",
    "latitude": 44.8482229,
    "longitude": -0.5831307,
    "addr:city": "Bordeaux",
    "addr:housenumber": "128",
    "addr:postcode": "33000",
    "addr:street": "Rue du Docteur Albert Barraud",
    "check_date": "2025-03-25",
    "currency:XBT": "yes",
    "delivery": "no",
    "description": "Bien plus qu’un simple lieu d’exposition,\ndans ce sanctuaire les œuvres prennent vie\net les esprits curieux se rencontrent.",
    "name": "Galerie neilag",
    "opening_hours": "Mo-Sa 10:00-19:00",
    "payment:cryptocurrencies": "yes",
    "phone": "+33556525192",
    "products": "paintings;art;artworks",
    "survey:date:currency:XBT": "2025-03-25",
    "tourism": "gallery",
    "website": "https://www.neilag.art/"
  }
]