[
  {
    "id": 26131828,
    "type": "node",
    "latitude": 45.7464306,
    "longitude": 4.8359519,
    "fee": "yes",
    "museum": "history",
    "name": "Centre d'Histoire de la Résistance et de la Déportation",
    "opening_hours": "We-Sa 10:00-18:00",
    "operator": "ville de Lyon",
    "operator:type": "government",
    "phone": "+33 4 78 72 23 11",
    "ref:FR:museofile": "M1034",
    "tourism": "museum",
    "website": "https://www.chrd.lyon.fr/",
    "wheelchair": "yes",
    "wikidata": "Q8348"
  },
  {
    "id": 26132213,
    "type": "node",
    "latitude": 45.7335086,
    "longitude": 4.8629827,
    "contact:instagram": "https://www.instagram.com/musee_urbain_tony_garnier/",
    "email": "musee@mutg.org",
    "fee": "yes",
    "name": "Musée urbain Tony Garnier",
    "opening_hours": "Tu-Sa 14:00-18:00",
    "phone": "+33 4 78 75 16 75",
    "tourism": "museum",
    "website": "https://www.museeurbaintonygarnier.com",
    "wikidata": "Q3330816"
  },
  {
    "id": 249066761,
    "type": "node",
    "latitude": 45.7305319,
    "longitude": 4.7385345,
    "name": "Centre d'art contemporain du Fort du Bruissin",
    "tourism": "museum"
  },
  {
    "id": 454178148,
    "type": "node",
    "latitude": 45.7592731,
    "longitude": 4.8444842,
    "contact:email": "brindidee@gmail.com",
    "contact:phone": "+33 6 03 45 17 10",
    "contact:website": "http://www.brin-d-idee.net/",
    "fee": "no",
    "name": "Brin d'Idée",
    "tourism": "gallery"
  },
  {
    "id": 533620349,
    "type": "node",
    "latitude": 45.8380385,
    "longitude": 4.825081,
    "historic": "monument",
    "shop": "convenience"
  },
  {
    "id": 580685327,
    "type": "node",
    "latitude": 45.8217569,
    "longitude": 4.8202498,
    "historic": "monument",
    "name": "Sanctuaire Notre-Dame de tout pouvoir"
  },
  {
    "id": 582438575,
    "type": "node",
    "latitude": 45.8282326,
    "longitude": 4.7784778,
    "name": "Ferme caprine de l'Hermitage",
    "opening_hours": "Mo-Sa 15:15-19:00",
    "tourism": "attraction",
    "website": "http://fermedelhermitage.fr/"
  },
  {
    "id": 583308333,
    "type": "node",
    "latitude": 45.8374134,
    "longitude": 4.8053212,
    "description": "Lavoir typique des Monts d'Or.\nEau non potable.\nNe coule pas.",
    "name": "Lavoir",
    "tourism": "attraction"
  },
  {
    "id": 654859095,
    "type": "node",
    "latitude": 45.8800632,
    "longitude": 4.5595762,
    "alt_name": "Tilleul du roi Henri IV",
    "genus": "Tilia",
    "genus:fr": "Tilleul",
    "leaf_type": "broadleaved",
    "name": "Tilleul de Sully à Sarcey",
    "natural": "tree",
    "start_date": "~C16",
    "tourism": "attraction"
  },
  {
    "id": 1357592004,
    "type": "node",
    "latitude": 45.7258436,
    "longitude": 4.7930643,
    "name": "City Aventure Lyon - Ste Foy",
    "sport": "climbing_adventure",
    "tourism": "attraction",
    "website": "https://www.cityaventure.com/parc/parc-d-attraction-ste-foy/"
  },
  {
    "id": 1421012868,
    "type": "node",
    "latitude": 45.7618753,
    "longitude": 4.8272985,
    "alt_name": "Musée Miniature et Cinéma",
    "contact:facebook": "museeminiatureetcinema",
    "contact:instagram": "museeminiatureetcinemalyon",
    "fee": "yes",
    "name": "Musée Cinéma & Miniature",
    "old_name": "Maison des Avocats",
    "opening_hours": "Mo-Fr 10:00-18:30; Sa,Su 10:00-19:00; SH,Mo-Su 10:00-19:00",
    "phone": "+33 4 72002477",
    "ref:FR:SIRET": "43518389200023",
    "tourism": "museum",
    "website": "https://www.museeminiatureetcinema.fr/",
    "wikidata": "Q3330257",
    "wikipedia": "fr:Musée Miniature et Cinéma"
  },
  {
    "id": 1460479330,
    "type": "node",
    "latitude": 45.7625393,
    "longitude": 4.8727591,
    "fee": "yes",
    "fee:conditional": "no @ (age < 18)",
    "name": "Institut d'art contemporain",
    "name:en": "Institute of Contemporary Art",
    "opening_hours": "we-fr 14:00-18:00; sa-su 13:00-19:00",
    "short_name": "IAC",
    "tourism": "museum",
    "website": "https://i-ac.eu/",
    "wikidata": "Q3151912",
    "wikipedia": "fr:Institut d'art contemporain de Villeurbanne"
  },
  {
    "id": 1563920259,
    "type": "node",
    "latitude": 45.8449493,
    "longitude": 4.8371587,
    "addr:city": "Rochetaillée-sur-Saône",
    "addr:housenumber": "645",
    "addr:postcode": "69270",
    "addr:street": "Rue du Musée",
    "charge": "6€",
    "fee": "yes",
    "name": "Musée de l'automobile Henri Malartre",
    "opening_hours": "Jan Sa,Su 10:30-18:00; Feb-Dec Tu-Su 10:30-18:00; Feb-Dec Fr[3] 13:00-18:00; Dec 25,Jan 01 off",
    "payment:cash": "yes",
    "payment:credit_cards": "yes",
    "phone": "+33 4 78 22 18 80",
    "ref:FR:museofile": "M1040",
    "source": "Ministère de la Culture - base Muséofile - 2019, website, local knowledge",
    "tourism": "museum",
    "website": "https://www.musee-malartre.com/",
    "wheelchair": "limited",
    "wikidata": "Q3329811"
  },
  {
    "id": 1714710866,
    "type": "node",
    "latitude": 45.7745651,
    "longitude": 4.8350113,
    "check_date": "2024-05-09",
    "name": "Le Gros Caillou",
    "natural": "stone",
    "tourism": "attraction",
    "wikidata": "Q16303800",
    "wikipedia": "fr:Le Gros Caillou"
  },
  {
    "id": 1764931653,
    "type": "node",
    "latitude": 45.6630605,
    "longitude": 4.7115351,
    "name": "Fontaine à l'eau ferrugineuse",
    "natural": "spring",
    "tourism": "attraction"
  },
  {
    "id": 1777581773,
    "type": "node",
    "latitude": 45.7566217,
    "longitude": 4.8311317,
    "contact:email": "contact@bullukian.com",
    "contact:housenumber": "26",
    "contact:phone": "+33472529334",
    "contact:street": "Place Bellecour",
    "description": "Lieu de 1500 m² dédié à la création contemporaine qui défend une approche singulière de l’art en favorisant l’émergence de formes inédites, propices à une culture en mouvement.",
    "fee": "no",
    "name": "Fondation Bullukian",
    "opening_hours": "Tu-Fr 14:00-18:00; Sa 10:00-12:00, 14:00-19:00",
    "ref:FR:SIRET": "45272027900028",
    "tourism": "museum",
    "website": "https://www.bullukian.com/",
    "wheelchair": "yes"
  },
  {
    "id": 2408586706,
    "type": "node",
    "latitude": 45.7747844,
    "longitude": 4.690323,
    "email": "museeantoinebrun@ccvl.fr",
    "name": "Musée Antoine Brun",
    "phone": "+33478871551",
    "tourism": "museum"
  },
  {
    "id": 2457712085,
    "type": "node",
    "latitude": 45.7684984,
    "longitude": 4.8260672,
    "fee": "no",
    "name": "Fedora Art Gallery",
    "opening_hours": "Fr 14:00-19:00, Sa 10:00-12:00,14:00-18:00",
    "tourism": "gallery",
    "website": "http://www.fedoraartgallery.com/"
  },
  {
    "id": 2590579928,
    "type": "node",
    "latitude": 45.7414332,
    "longitude": 4.8805413,
    "name": "Musée d'histoire de la médecine et de la pharmacie de Lyon",
    "tourism": "museum",
    "wikidata": "Q15402843",
    "wikipedia": "fr:Musée d'histoire de la médecine et de la pharmacie de Lyon"
  },
  {
    "id": 2812916913,
    "type": "node",
    "latitude": 45.759028,
    "longitude": 4.8211073,
    "addr:city": "Lyon",
    "addr:housenumber": "6",
    "addr:postcode": "69005",
    "addr:street": "Rue de l'Antiquaille",
    "fee": "yes",
    "name": "Entrée du musée gallo-romain de Lyon",
    "source": "Grand Lyon - 10/2011",
    "tourism": "museum"
  },
  {
    "id": 2997998158,
    "type": "node",
    "latitude": 45.8335307,
    "longitude": 4.8072341,
    "name": "Clos de la Rosette",
    "tourism": "attraction"
  },
  {
    "id": 3375289052,
    "type": "node",
    "latitude": 45.7639034,
    "longitude": 4.8281374,
    "fee": "no",
    "name": "Boutique Souvenirs du Petit Musée de Guignol",
    "name:en": "Old Town Souvenir and gift Shop",
    "opening_hours": "Mo-Su,PH 10:30-13:00,14:00-19:30",
    "operator": "S.A.R.L. Disagn",
    "phone": "+33478370167",
    "ref:FR:SIREN": "311426795",
    "shop": "gift",
    "start_date": "1978",
    "tourism": "museum",
    "website": "https://vieuxlyonsouvenirs.com/",
    "wheelchair": "yes"
  },
  {
    "id": 3396816090,
    "type": "node",
    "latitude": 45.8416918,
    "longitude": 4.8005465,
    "description": "Caborne typique des Monts d'Or",
    "name": "Caborne",
    "tourism": "attraction",
    "wikipedia": "fr:Caborne"
  },
  {
    "id": 3495444181,
    "type": "node",
    "latitude": 45.7088748,
    "longitude": 4.5916928,
    "description": "ouverture: mi-avril à fin octobre : dimanches et jours fériés de 14h à 18h",
    "name": "L'Araire",
    "phone": "+33 4 78810779",
    "source": "knowledge",
    "tourism": "museum",
    "website": "http://www.araire.org/"
  },
  {
    "id": 3822699441,
    "type": "node",
    "latitude": 45.7299317,
    "longitude": 4.8280106,
    "fee": "no",
    "name": "Maison des mathématiques et de l'informatique",
    "opening_hours": "Sa 14:30-16:00,16:15-17:45; We 14:00-15:15,15:30-16:45",
    "tourism": "museum",
    "website": "https://mmi-lyon.fr/"
  },
  {
    "id": 3825195658,
    "type": "node",
    "latitude": 45.8394678,
    "longitude": 4.8139127,
    "name": "Caborne",
    "tourism": "attraction"
  },
  {
    "id": 3825223062,
    "type": "node",
    "latitude": 45.8323485,
    "longitude": 4.812665,
    "amenity": "shelter",
    "building": "hut",
    "building:levels": "1",
    "name": "Caborne",
    "shelter_type": "weather_shelter",
    "tourism": "attraction",
    "wikidata": "Q2932721",
    "wikipedia": "fr:Cadole"
  },
  {
    "id": 3979306157,
    "type": "node",
    "latitude": 45.6443418,
    "longitude": 4.4481263,
    "addr:city": "Pomeys",
    "addr:postcode": "69590",
    "addr:street": "La Neylière",
    "name": "Musée de l'Océanie",
    "tourism": "museum",
    "website": "http://www.musee-oceanie.fr"
  },
  {
    "id": 3984080043,
    "type": "node",
    "latitude": 45.7629626,
    "longitude": 4.8269316,
    "man_made": "courtyard",
    "name": "La Tour Rose",
    "tourism": "attraction",
    "wikidata": "Q3536131",
    "wikipedia": "fr:Traboule de la Tour Rose"
  },
  {
    "id": 3986012989,
    "type": "node",
    "latitude": 45.6311532,
    "longitude": 4.4535256,
    "addr:city": "Saint-Symphorien-sur-Coise",
    "addr:postcode": "69590",
    "addr:street": "Rue Porte Riverie",
    "barrier": "entrance",
    "building": "yes",
    "heritage": "3",
    "heritage:operator": "mhs",
    "historic": "city_gate",
    "mhs:inscription_date": "1926-02-18",
    "name": "Porte de Riverie",
    "ref:mhs": "PA00118061",
    "source:heritage": "Ministère de la Culture - 06/2019",
    "tourism": "attraction",
    "wikidata": "Q22968224"
  },
  {
    "id": 3992834568,
    "type": "node",
    "latitude": 45.6319868,
    "longitude": 4.4528511,
    "building": "yes",
    "man_made": "tower",
    "name": "Tour du Rempart",
    "tourism": "attraction",
    "tower:type": "defensive"
  },
  {
    "id": 4003193289,
    "type": "node",
    "latitude": 45.6333214,
    "longitude": 4.4549908,
    "addr:city": "Saint-Symphorien-sur-Coise",
    "addr:postcode": "69590",
    "addr:street": "Rue Henry Petit",
    "name": "Maison des métiers",
    "phone": "+33478486432",
    "tourism": "museum",
    "website": "https://www.maisondesmetiers.fr/"
  },
  {
    "id": 4032404424,
    "type": "node",
    "latitude": 45.7305017,
    "longitude": 4.8182051,
    "alt_name": "Only Lyon",
    "mapillary": "112353277593971",
    "name": "#onlylyon",
    "tourism": "attraction",
    "wheelchair": "no"
  },
  {
    "id": 4121386372,
    "type": "node",
    "latitude": 45.6781707,
    "longitude": 4.3845937,
    "man_made": "water_well",
    "name": "Puits de la Motte",
    "tourism": "attraction"
  },
  {
    "id": 4236518485,
    "type": "node",
    "latitude": 45.7756475,
    "longitude": 4.8302002,
    "fee": "no",
    "name": "Monopôle",
    "tourism": "gallery"
  },
  {
    "id": 4417200595,
    "type": "node",
    "latitude": 45.7647877,
    "longitude": 4.9232356,
    "addr:postcode": "69120",
    "contact:phone": "+33428290919",
    "name": "Mini World Lyon",
    "name:fr": "Mini World Lyon",
    "opening_hours": "We-Fr 11:00-18:00; Sa-Su 10:00-19:00",
    "ref:FR:SIRET": "79341726200037",
    "tourism": "attraction",
    "website": "https://miniworldlyon.com",
    "wikidata": "Q17327772",
    "wikipedia": "fr:Mini World Lyon"
  },
  {
    "id": 4457051377,
    "type": "node",
    "latitude": 45.6536343,
    "longitude": 4.9096586,
    "addr:street": "Rue Nungesser et Coli",
    "contact:email": "guides@ealc.fr",
    "contact:mobile": "+33 7 89 21 22 96",
    "contact:phone": "+33 4 78 90 35 24",
    "contact:website": "http://www.ealc.fr/",
    "museum": "aerospace",
    "name": "Musée de l'Aviation Clément Ader",
    "opening_hours": "Mo, We-Su 14:00-18:00",
    "subject": "aeronautics",
    "tourism": "museum"
  },
  {
    "id": 4485572406,
    "type": "node",
    "latitude": 45.7450881,
    "longitude": 4.8706151,
    "check_date": "2025-03-23",
    "check_date:opening_hours": "2025-03-23",
    "fee": "yes",
    "name": "Institut Lumière",
    "opening_hours": "Tu-Su 10:00-18:30",
    "phone": "+33478781895",
    "tourism": "museum",
    "website": "http://institut-lumiere.org",
    "wheelchair": "limited",
    "wikidata": "Q3151766"
  },
  {
    "id": 4603763091,
    "type": "node",
    "latitude": 45.7568424,
    "longitude": 4.8433713,
    "fee": "no",
    "name": "La taverne Gutenberg",
    "opening_hours": "We-Sa 14:00-21:00; Su 14:00-19:00",
    "tourism": "museum",
    "website": "http://www.taverne-gutenberg.com"
  },
  {
    "id": 4642818337,
    "type": "node",
    "latitude": 45.8517953,
    "longitude": 4.7999932,
    "name": "La Roche Percée",
    "tourism": "attraction"
  },
  {
    "id": 4757432193,
    "type": "node",
    "latitude": 45.7615067,
    "longitude": 4.8272594,
    "heritage": "2",
    "heritage:operator": "mhs",
    "historic": "building",
    "mhs:inscription_date": "1943-09-15",
    "name": "Hôtel d'Estaing",
    "ref:mhs": "PA00117817",
    "source:heritage": "data.gouv.fr, Ministère de la Culture - 2016",
    "start_date": "C16",
    "tourism": "attraction",
    "wikidata": "Q3279987",
    "wikipedia": "fr:Maison du Chamarier"
  },
  {
    "id": 4885281682,
    "type": "node",
    "latitude": 45.777106,
    "longitude": 4.8336847,
    "fee": "yes",
    "name": "Maison des Canuts",
    "opening_hours": "Tu-Fr 10:00-13:00,14:00-18:00; Sa 10:00-18:00",
    "phone": "+33 4 78 28 62 04",
    "tourism": "museum",
    "website": "https://www.maisondescanuts.fr/",
    "wikidata": "Q3279836",
    "wikipedia": "fr:Maison des Canuts"
  },
  {
    "id": 5297358221,
    "type": "node",
    "latitude": 45.797918,
    "longitude": 4.8293849,
    "alt_name": "Musée Couty",
    "check_date": "2023-06-19",
    "fee": "yes",
    "name": "Musée Jean Couty",
    "tourism": "museum",
    "wikidata": "Q28973562",
    "wikipedia": "fr:Musée Jean-Couty"
  },
  {
    "id": 5325674943,
    "type": "node",
    "latitude": 45.7571143,
    "longitude": 4.8417535,
    "craft": "painter",
    "description": "Galerie associative et atelier de création (vêtements, bijoux et accessoires)",
    "name": "Atelier An.Berto",
    "phone": "+33 6 42 71 32 61",
    "tourism": "gallery",
    "website": "https://fr-fr.facebook.com/Atelier-AnBerto-275176714627/",
    "wheelchair": "no"
  },
  {
    "id": 5395778465,
    "type": "node",
    "latitude": 45.7088764,
    "longitude": 4.7365148,
    "name": "Stade",
    "tourism": "attraction"
  },
  {
    "id": 5395778470,
    "type": "node",
    "latitude": 45.7113937,
    "longitude": 4.7424264,
    "name": "École primaire LS",
    "tourism": "attraction"
  },
  {
    "id": 5425010302,
    "type": "node",
    "latitude": 45.7689309,
    "longitude": 4.8579365,
    "check_date:opening_hours": "2024-07-10",
    "fee": "no",
    "name": "Galerie Wawi",
    "opening_hours:signed": "no",
    "tourism": "gallery"
  },
  {
    "id": 5779529854,
    "type": "node",
    "latitude": 45.7609435,
    "longitude": 4.8307512,
    "description": "Point d'embarcadère de croisières à Lyon",
    "name": "Les Bateaux Lyonnais",
    "tourism": "attraction",
    "website": "https://www.lesbateauxlyonnais.com/"
  },
  {
    "id": 5830304035,
    "type": "node",
    "latitude": 45.7801248,
    "longitude": 4.8353898,
    "check_date:opening_hours": "2024-07-23",
    "fee": "yes",
    "heritage": "3",
    "heritage:operator": "mhs",
    "mhs:inscription_date": "2013-03-15",
    "name": "Atelier Mattelon",
    "opening_hours:signed": "no",
    "ref:mhs": "PA69000043",
    "source:heritage": "Ministère de la Culture - 07/2018",
    "tourism": "museum",
    "website": "https://www.lyon-france.com/Je-decouvre-Lyon/culture-et-musees/Musees/atelier-de-tissage-mattelon"
  },
  {
    "id": 5830448638,
    "type": "node",
    "latitude": 45.6661314,
    "longitude": 4.8262489,
    "heritage": "3",
    "heritage:operator": "mhs",
    "historic": "manor",
    "mhs:inscription_date": "2009-11-06",
    "name": "Villa et Jardin Bagatelle",
    "ref:mhs": "PA69000041",
    "source:heritage": "Ministère de la Culture - 07/2018",
    "start_date": "1900",
    "tourism": "attraction",
    "wikidata": "Q22997728",
    "wikipedia": "fr:Villa Bagatelle (Irigny)"
  },
  {
    "id": 5830448640,
    "type": "node",
    "latitude": 45.804587,
    "longitude": 4.7534242,
    "alt_name": "Maion Natale de Saint Jean-Marie Vianney",
    "contact:phone": "+33478661909",
    "contact:website": "https://www.village-natal-saint-cure-ars-dardilly.fr/",
    "heritage": "3",
    "heritage:operator": "mhs",
    "mhs:inscription_date": "2001-02-01",
    "name": "Maison Natale du Curé d'Ars",
    "opening_hours": "We, Sa-Su 14:30-17:00",
    "ref:mhs": "PA69000011",
    "tourism": "museum"
  },
  {
    "id": 5890198278,
    "type": "node",
    "latitude": 45.7515869,
    "longitude": 4.8294779,
    "fee": "no",
    "name": "Made in Gold",
    "survey:date": "2023-10-06",
    "tourism": "gallery"
  },
  {
    "id": 6095251759,
    "type": "node",
    "latitude": 45.8503899,
    "longitude": 4.7876931,
    "aircraft:type": "military",
    "historic": "aircraft",
    "name": "Dassault Super Mystère B2",
    "source": "DigitalGlobe standard",
    "subject:wikidata": "Q1172028",
    "subject:wikipedia": "fr:Dassault Super Mystère B2",
    "tourism": "attraction"
  },
  {
    "id": 6095251760,
    "type": "node",
    "latitude": 45.8553852,
    "longitude": 4.7872274,
    "aircraft:type": "military",
    "historic": "aircraft",
    "name": "Dassault Mirage III C",
    "source": "DigitalGlobe standard",
    "subject:wikidata": "Q234371",
    "subject:wikipedia": "fr:Dassault Mirage III",
    "tourism": "attraction"
  },
  {
    "id": 6095251761,
    "type": "node",
    "latitude": 45.8541256,
    "longitude": 4.7856027,
    "aircraft:type": "military",
    "historic": "aircraft",
    "name": "Dassault Mirage F1 C",
    "source": "DigitalGlobe standard",
    "subject:wikidata": "Q319361",
    "subject:wikipedia": "fr:Dassault Mirage F1",
    "tourism": "attraction"
  },
  {
    "id": 6126712437,
    "type": "node",
    "latitude": 45.7600362,
    "longitude": 4.8231111,
    "addr:housenumber": "49",
    "alt_name": "Musée de l'Antiquaille",
    "museum": "history",
    "name": "Espace culturel du christianisme à Lyon",
    "start_date": "2014-12",
    "tourism": "museum",
    "website": "https://antiquaille.fr",
    "wikidata": "Q65154186",
    "wikipedia": "fr:Espace culturel du christianisme à Lyon"
  },
  {
    "id": 6206054761,
    "type": "node",
    "latitude": 45.7840258,
    "longitude": 4.7359961,
    "name": "Entre'Vue",
    "tourism": "museum"
  },
  {
    "id": 6221619681,
    "type": "node",
    "latitude": 45.7515932,
    "longitude": 4.8543123,
    "check_date": "2024-10-01",
    "description": "Hors horaires pour les groupes sur RDV.",
    "email": "musee.des.moulages@univ-lyon2.fr",
    "fee": "no",
    "name": "Musée des Moulages",
    "opening_hours": "We,Sa 14:00-18:00",
    "operator": "Université Lyon II",
    "phone": "+33 4 87248063",
    "tourism": "museum",
    "website": "https://www.univ-lyon2.fr/universite/mumo",
    "wikidata": "Q55598705",
    "wikipedia": "fr:Musée des Moulages (Lyon)"
  },
  {
    "id": 6299539587,
    "type": "node",
    "latitude": 45.7374253,
    "longitude": 4.6562013,
    "description": "Moulin à fruits",
    "tourism": "attraction"
  },
  {
    "id": 6407325460,
    "type": "node",
    "latitude": 45.7707332,
    "longitude": 4.8371697,
    "fee": "no",
    "name": "Feux d’artistes",
    "phone": "+33 7 55 99 02 85",
    "tourism": "gallery"
  },
  {
    "id": 6423054448,
    "type": "node",
    "latitude": 45.6428452,
    "longitude": 4.8150265,
    "description": "La barque est reliée au cable qui traverse le fleuve d'une tour à l'autre. Reconstitution à l'échelle 70% installée en mai 2006. Exploitation jusqu'à la construction du pont en 1902, puis à nouveau de 1940 à 1959 suite à sa destruction.",
    "name": "Barque du bac à traille",
    "source": "Journal Le Progrès du 27 mai 2006",
    "tourism": "attraction"
  },
  {
    "id": 6575800693,
    "type": "node",
    "latitude": 45.7608407,
    "longitude": 4.8315116,
    "name": "Musée des Hospices Civils de Lyon",
    "phone": "+33 7 89 87 01 85;+33 4 72 40 75 74",
    "ref:FR:museofile": "M1039",
    "tourism": "museum",
    "website": "https://www.chu-lyon.fr/fr/musee-des-hcl"
  },
  {
    "id": 6899955671,
    "type": "node",
    "latitude": 45.7543259,
    "longitude": 4.8280375,
    "fee": "no",
    "name": "Best regards",
    "tourism": "gallery"
  },
  {
    "id": 6943618299,
    "type": "node",
    "latitude": 45.7596898,
    "longitude": 4.8362144,
    "fee": "yes",
    "level": "0",
    "name": "Cité Internationale de la Gastronomie de Lyon",
    "opening_hours": "We,Fr,Sa,Su 11:00-19:00; Th 13:00-21:00",
    "subject": "gastronomy",
    "subject:wikidata": "Q171141",
    "tourism": "museum",
    "website": "https://citegastronomielyon.fr/",
    "wikidata": "Q74017785"
  },
  {
    "id": 7138484294,
    "type": "node",
    "latitude": 45.8144541,
    "longitude": 4.7725724,
    "alt_name": "Musée du chocolat, Musée Manufacture Sève Cacao Collection Chocolat",
    "loc_name": "Musée du chocolat",
    "name": "Musco",
    "short_name": "MUSCO",
    "start_date": "2017",
    "tourism": "museum",
    "website": "https://www.chocolatseve.com/content/42-visitez-le-musco",
    "wikidata": "Q82651035",
    "wikipedia": "fr:MUSCO - Musée du chocolat"
  },
  {
    "id": 7161092947,
    "type": "node",
    "latitude": 45.689911,
    "longitude": 5.0289877,
    "name": "Musée de la Photographie Saint-Bonnet-de-Mure",
    "opening_hours": "We 14:30-18:30; Sa 10:00-18:00",
    "tourism": "museum",
    "website": "http://lamaisonphoto.fr/maison-de-la-photographie/"
  },
  {
    "id": 7302402745,
    "type": "node",
    "latitude": 45.7594205,
    "longitude": 4.8319096,
    "check_date": "2024-11-30",
    "check_date:opening_hours": "2024-11-30",
    "email": "contact@galerie-platini.com",
    "fee": "no",
    "name": "Sylvie Platini",
    "opening_hours": "We-Sa 11:00-12:30,14:00-19:00",
    "phone": "+33 4 72 15 75 52",
    "ref:FR:SIRET": "80144336700025",
    "tourism": "gallery",
    "website": "https://www.galerie-platini.com/"
  },
  {
    "id": 7302402754,
    "type": "node",
    "latitude": 45.7597125,
    "longitude": 4.8311707,
    "fee": "no",
    "name": "Galerie Emir",
    "opening_hours": "Mo 14:00-19:00; Tu-Fr 09:30-12:00, 14:00-19:00; Sa 10:00-12:00, 14:00-19:00",
    "phone": "+334 78280522",
    "survey:date": "2023-10-08",
    "tourism": "gallery",
    "website": "https://www.proantic.com/galerie/galerieemir/"
  },
  {
    "id": 7332812902,
    "type": "node",
    "latitude": 45.793412,
    "longitude": 4.4817947,
    "name": "Gîte d'enfant de la Tuilerie",
    "operator": "Michelle",
    "tourism": "attraction"
  },
  {
    "id": 7629079965,
    "type": "node",
    "latitude": 45.7640438,
    "longitude": 4.8288457,
    "contact:city": "Lyon",
    "contact:housenumber": "7",
    "contact:postcode": "69005",
    "contact:street": "Quai Romain Rolland",
    "name": "ComhiC eBike Segway Tour",
    "opening_hours": "9:30-18:00",
    "ref:FR:SIRET": "49395224600038",
    "tourism": "attraction",
    "website": "https://www.comhic.com/"
  },
  {
    "id": 8059153837,
    "type": "node",
    "latitude": 45.7334838,
    "longitude": 5.0024745,
    "description": "Musée de la vie rurale",
    "name": "Espace Muséal de Gandil",
    "phone": "+33 4 72 47 11 11",
    "tourism": "museum"
  },
  {
    "id": 8072238082,
    "type": "node",
    "latitude": 45.7448462,
    "longitude": 4.8696072,
    "name": "Galerie Cinéma 1",
    "operator": "Institut Lumière",
    "tourism": "gallery"
  },
  {
    "id": 8104304159,
    "type": "node",
    "latitude": 45.7640339,
    "longitude": 4.8281681,
    "contact:instagram": "https://www.instagram.com/picout_gregory",
    "fee": "no",
    "name": "L'angle de vue",
    "phone": "+33603603401",
    "tourism": "gallery",
    "website": "https://www.artphotolyon.com"
  },
  {
    "id": 8465333517,
    "type": "node",
    "latitude": 45.773667,
    "longitude": 4.8322295,
    "fee": "no",
    "name": "Galerie Regard Sud",
    "opening_hours": "Tu-Sa 14:00-19:00",
    "tourism": "gallery"
  },
  {
    "id": 8465340892,
    "type": "node",
    "latitude": 45.7726595,
    "longitude": 4.8360729,
    "fee": "no",
    "name": "Le Bleu du Ciel",
    "tourism": "gallery"
  },
  {
    "id": 8465340894,
    "type": "node",
    "latitude": 45.7705706,
    "longitude": 4.8353958,
    "fee": "no",
    "name": "Galerie 48",
    "tourism": "gallery"
  },
  {
    "id": 8465340895,
    "type": "node",
    "latitude": 45.7705654,
    "longitude": 4.8353131,
    "fee": "no",
    "name": "Galerie Mathieu",
    "tourism": "gallery"
  },
  {
    "id": 8465413763,
    "type": "node",
    "latitude": 45.7706124,
    "longitude": 4.8346548,
    "fee": "no",
    "name": "Galerie Nörka",
    "tourism": "gallery"
  },
  {
    "id": 8465413764,
    "type": "node",
    "latitude": 45.7704764,
    "longitude": 4.8344121,
    "fee": "no",
    "name": "Galerie Le Réverbère",
    "tourism": "gallery"
  },
  {
    "id": 8488439793,
    "type": "node",
    "latitude": 45.6185926,
    "longitude": 4.6710147,
    "addr:city": "Mornant",
    "addr:place": "Place Jacques Truphémus",
    "addr:postcode": "69440",
    "description": "Jours fériés 14h30 - 18h30\nJuillet et Août 14h30 - 18h30\nFermé le lundi",
    "museum": "history",
    "name": "Maison de pays",
    "opening_hours": "Sa 14:30-18:30; Su 11:00-12:30, 14:30-18:30",
    "tourism": "museum",
    "website": "www.maison-pays.com"
  },
  {
    "id": 8489015136,
    "type": "node",
    "latitude": 45.7772269,
    "longitude": 4.834784,
    "check_date:opening_hours": "2023-07-03",
    "fee": "no",
    "name": "La Galerue",
    "tourism": "gallery",
    "website": "http://www.lagalerue.fr"
  },
  {
    "id": 8600222789,
    "type": "node",
    "latitude": 45.7700172,
    "longitude": 4.8346202,
    "fee": "no",
    "name": "L'Abat-Jour",
    "tourism": "gallery"
  },
  {
    "id": 8600222793,
    "type": "node",
    "latitude": 45.7697163,
    "longitude": 4.8327145,
    "fee": "no",
    "name": "L'Alcove",
    "opening_hours": "Tu-Sa 13:00-19:00",
    "tourism": "gallery"
  },
  {
    "id": 8650890083,
    "type": "node",
    "latitude": 45.7758106,
    "longitude": 4.8365935,
    "fee": "yes",
    "museum": "history",
    "name": "Soierie Vivante",
    "tourism": "museum",
    "website": "https://www.soierie-vivante.asso.fr"
  },
  {
    "id": 8650890084,
    "type": "node",
    "latitude": 45.7802088,
    "longitude": 4.8370503,
    "fee": "yes",
    "museum": "history",
    "name": "Soierie Vivante",
    "opening_hours": "Tu-Sa 14:00-17:00",
    "tourism": "museum",
    "website": "https://www.soierie-vivante.asso.fr"
  },
  {
    "id": 8685851867,
    "type": "node",
    "latitude": 45.7537479,
    "longitude": 4.8882135,
    "fee": "no",
    "name": "Aux 2 ateliers",
    "shop": "art",
    "tourism": "gallery"
  },
  {
    "id": 8699441650,
    "type": "node",
    "latitude": 45.776646,
    "longitude": 4.8337469,
    "artwork_type": "photo",
    "fee": "no",
    "name": "Galerie Vrais Rêves",
    "tourism": "gallery",
    "website": "http://vraisreves.com/",
    "wikidata": "Q20971885",
    "wikipedia": "fr:Galerie Vrais Rêves"
  },
  {
    "id": 8703702406,
    "type": "node",
    "latitude": 45.7618667,
    "longitude": 4.8226203,
    "fee": "yes",
    "name": "Musée d'art religieux de Fourvière",
    "opening_hours": "Mo-Su 12:00-18:00",
    "start_date": "1960",
    "tourism": "museum",
    "website": "https://www.fourviere.org/fr/culture-notre-dame-de-fourviere/musee/le-musee-dart-religieux-de-fourviere/",
    "wikidata": "Q36076778",
    "wikipedia": "fr:Musée d'art religieux de Fourvière"
  },
  {
    "id": 8743017778,
    "type": "node",
    "latitude": 45.773958,
    "longitude": 4.808088,
    "name": "Art Show",
    "tourism": "gallery"
  },
  {
    "id": 8839201597,
    "type": "node",
    "latitude": 45.4629412,
    "longitude": 4.7667033,
    "name": "Le bois qui chante",
    "opening_hours": "Tu 15:00-19:00; We 10:00-12:00,15:00-19:00; Th 15:00-19:00; Fr 09:00-12:00,14:00-19:00; Sa,Su 10:00-12:00",
    "tourism": "gallery"
  },
  {
    "id": 9039678060,
    "type": "node",
    "latitude": 45.7590059,
    "longitude": 4.8361266,
    "fee": "yes",
    "level": "0",
    "name": "Musée de l'Illusion",
    "opening_hours": "Su-We 10:00-20:00; Th-Sa 10:00-22:00",
    "ref:FR:SIRET": "88912066300022",
    "start_date": "2021",
    "tourism": "museum",
    "website": "https://museedelillusion.fr/",
    "wheelchair": "yes",
    "wikidata": "Q108293274"
  },
  {
    "id": 9039823524,
    "type": "node",
    "latitude": 45.7518115,
    "longitude": 4.8511261,
    "contact:email": "contact@icj-lyon.org",
    "fee": "no",
    "name": "institut culturel du judaïsme",
    "phone": "+33 4 12 04 05 18",
    "tourism": "museum",
    "website": "https://www.icj-lyon.org/",
    "wikidata": "Q108293337"
  },
  {
    "id": 9048925713,
    "type": "node",
    "latitude": 45.6611358,
    "longitude": 4.6323444,
    "description": "maison du modélisme agricole",
    "name": "Musée Paul Buyer",
    "tourism": "museum"
  },
  {
    "id": 9512223756,
    "type": "node",
    "latitude": 45.7625023,
    "longitude": 4.8325477,
    "access": "permissive",
    "name": "Traboule 27 quai Saint Antoine - 58 rue Mercière",
    "tourism": "attraction"
  },
  {
    "id": 9909140727,
    "type": "node",
    "latitude": 45.8359475,
    "longitude": 4.6172652,
    "name": "Maison dite de « Jacques Cœur»",
    "tourism": "attraction"
  },
  {
    "id": 10236310696,
    "type": "node",
    "latitude": 45.7721121,
    "longitude": 4.8881632,
    "name": "URDLA",
    "tourism": "gallery"
  },
  {
    "id": 10270080304,
    "type": "node",
    "latitude": 45.7781019,
    "longitude": 4.8005576,
    "museum": "art",
    "name": "Tomaselli Collection",
    "operator": "Jérôme Tomaselli",
    "operator:type": "private",
    "phone": "+33 6 64 40 58 53",
    "start_date": "2022",
    "tourism": "museum",
    "website": "https://tomaselli-collection.com",
    "wikidata": "Q115739755"
  },
  {
    "id": 10299283607,
    "type": "node",
    "latitude": 45.8103676,
    "longitude": 4.5995278,
    "craft": "oil_mill",
    "historic": "ruins",
    "tourism": "attraction"
  },
  {
    "id": 10583704777,
    "type": "node",
    "latitude": 45.7733749,
    "longitude": 4.8283825,
    "email": "galeriefbesson@gmail.com",
    "internet_access": "yes",
    "internet_access:ssid": "galeriefbesson",
    "mobile": "+33 6 07 37 45 32",
    "name": "Galerie Françoise Besson",
    "opening_hours": "We-Sa 14:30-19:00",
    "payment:cash": "yes",
    "payment:cheque": "yes",
    "payment:credit_cards": "yes",
    "toilets": "yes",
    "tourism": "gallery",
    "website": "https://www.francoisebesson.com",
    "wheelchair": "no"
  },
  {
    "id": 10716445268,
    "type": "node",
    "latitude": 45.7597657,
    "longitude": 4.8372966,
    "fee": "yes",
    "name": "Musée des soieries Brochier",
    "opening_hours": "Mo-Sa 10:00-13:00,14:00-19:00; Su,PH 10:00-13:00,14:00-18:00",
    "start_date": "2022",
    "tourism": "museum",
    "website": "https://www.brochiersoieries.com/le-musee/",
    "wikidata": "Q116994847"
  },
  {
    "id": 10769531673,
    "type": "node",
    "latitude": 45.7622588,
    "longitude": 4.8365443,
    "contact:phone": "+33620271373",
    "fee": "no",
    "name": "Léo Maltès",
    "opening_hours": "Tu,Sa 12:00-18:00; We 14:00-18:00; Th,Fr 11:00-18:00",
    "tourism": "gallery",
    "website": "https://leomaltes.com/"
  },
  {
    "id": 10771943351,
    "type": "node",
    "latitude": 45.7673984,
    "longitude": 4.8585218,
    "contact:email": "galerie@sainthubert.fr",
    "contact:phone": "+33478520051",
    "fee": "no",
    "name": "Galerie Saint Hubert",
    "opening_hours": "Mo-Sa 10:00-12:00,14:00-19:30",
    "ref:FR:SIRET": "38332801000012",
    "survey:date": "2023-06-12",
    "tourism": "gallery",
    "website": "https://www.galerie-sainthubert.fr"
  },
  {
    "id": 10819647139,
    "type": "node",
    "latitude": 45.7564767,
    "longitude": 4.8326625,
    "contact:phone": "+33478374737",
    "fee": "no",
    "name": "Artclub Gallery",
    "opening_hours": "Tu-Sa 10:00-12:00,14:00-19:00",
    "ref:FR:SIRET": "41227846700011",
    "tourism": "gallery",
    "website": "https://www.artclub.fr"
  },
  {
    "id": 10855914604,
    "type": "node",
    "latitude": 45.4629549,
    "longitude": 4.7788552,
    "addr:city": "Condrieu",
    "addr:housenumber": "16",
    "addr:postcode": "69420",
    "addr:street": "Chemin du Camping",
    "name": "Wine and Ride Condrieu",
    "tourism": "attraction",
    "website": "https://www.wineandride.com/fr/condrieu/"
  },
  {
    "id": 11005829237,
    "type": "node",
    "latitude": 45.7784854,
    "longitude": 4.847031,
    "board_type": "history",
    "inscription": "... En 1862, à Brégnier-Cordon ... les ingénieurs du Service de la navigation du Rhône découvrent une embarcation longue et étroite, creusée dans le tronc d'un chêne (Quercus sp.)... 2011  ... est installée au Musée Escale Haut-Rhône",
    "name": "Pirogue Monoxyle du Parc de la Tête d'Or",
    "tourism": "attraction"
  },
  {
    "id": 11169363281,
    "type": "node",
    "latitude": 45.8763514,
    "longitude": 4.8402702,
    "fee": "no",
    "name": "Arts & Enfance",
    "opening_hours": "\"sur demande\"",
    "tourism": "gallery"
  },
  {
    "id": 11225260807,
    "type": "node",
    "latitude": 45.7997494,
    "longitude": 4.833588,
    "name": "Nathalie Leverger",
    "tourism": "gallery",
    "website": "https://nathalieleverger.fr"
  },
  {
    "id": 11263316995,
    "type": "node",
    "latitude": 45.7428824,
    "longitude": 4.8213275,
    "addr:postcode": "69002",
    "museum": "technology",
    "name": "Musée des géomètres-experts de la région Auvergne-Rhône-Alpes",
    "start_date": "1989",
    "tourism": "museum",
    "website": "https://www.geo-anse.com/geo/geoa0003.htm",
    "wikidata": "Q123048688"
  },
  {
    "id": 11304098409,
    "type": "node",
    "latitude": 45.7782141,
    "longitude": 4.8348488,
    "fee": "no",
    "name": "L'atelier du Guru",
    "tourism": "gallery"
  },
  {
    "id": 11427351099,
    "type": "node",
    "latitude": 45.7643955,
    "longitude": 4.8288761,
    "fee": "no",
    "name": "l'oeil écoute",
    "opening_hours": "Fr,Sa 14:00-19:00; Su 11:00-17:00",
    "tourism": "gallery",
    "website": "https://www.galerie-oeil-ecoute.fr"
  },
  {
    "id": 11564357630,
    "type": "node",
    "latitude": 45.770719,
    "longitude": 4.8316558,
    "description": "de Camille LLADO",
    "fee": "no",
    "name": "Le Shopayado",
    "opening_hours": "Th-Sa 11:00-19:00",
    "tourism": "gallery"
  },
  {
    "id": 11901337122,
    "type": "node",
    "latitude": 45.7616782,
    "longitude": 4.8267181,
    "check_date:opening_hours": "2024-06-07",
    "fee": "no",
    "name": "Atelier Antonins",
    "opening_hours:signed": "no",
    "tourism": "gallery"
  },
  {
    "id": 11937127026,
    "type": "node",
    "latitude": 45.7599035,
    "longitude": 4.8305403,
    "contact:email": "bonjour@omart.fr",
    "contact:phone": "+33629695041",
    "fee": "no",
    "name": "omart",
    "opening_hours": "Th-Sa 11:00-19:00",
    "ref:FR:SIRET": "88071673300022",
    "tourism": "gallery",
    "website": "https://omart.fr"
  },
  {
    "id": 12060119643,
    "type": "node",
    "latitude": 45.7687892,
    "longitude": 4.8503782,
    "tourism": "gallery"
  },
  {
    "id": 12063289836,
    "type": "node",
    "latitude": 45.7690169,
    "longitude": 4.8565091,
    "fee": "no",
    "tourism": "gallery"
  },
  {
    "id": 12075539069,
    "type": "node",
    "latitude": 45.6585476,
    "longitude": 4.6023867,
    "contact:facebook": "festivalrontalon",
    "contact:instagram": "letacotvoyageephemere",
    "name": "Circuit de Land’Art",
    "opening_hours": "24/7",
    "tourism": "attraction",
    "website": "http://www.rontalon.fr/presentation/"
  },
  {
    "id": 12090588219,
    "type": "node",
    "latitude": 45.768712,
    "longitude": 4.8345235,
    "contact:housenumber": "9",
    "contact:street": "Rue Saint-Polycarpe",
    "name": "Diable ! Petite Manufacture",
    "opening_hours": "Tu-Fr 10:30-13:00, 14:00-19:00; Sa 14:30-19:00",
    "tourism": "gallery",
    "website": "http://diablepetitemanufacture.com"
  },
  {
    "id": 12167824674,
    "type": "node",
    "latitude": 45.7486742,
    "longitude": 4.8455572,
    "fee": "no",
    "name": "Atelier des 3 Pierres",
    "opening_hours": "\"Journées portes ouvertes\"",
    "tourism": "gallery"
  },
  {
    "id": 12177021402,
    "type": "node",
    "latitude": 45.800215,
    "longitude": 4.9981935,
    "name": "Abandoned car in the Forest",
    "outdoor_seating": "no",
    "tourism": "attraction"
  },
  {
    "id": 12189622108,
    "type": "node",
    "latitude": 45.7826131,
    "longitude": 4.8653343,
    "email": "contact@cc.in2p3.fr",
    "fee": "no",
    "level": "-1",
    "museum": "technology",
    "name": "Musée de l'informatique du centre de calcul de l'IN2P3",
    "opening_hours": "\"Sur rendez vous\"",
    "operator": "IN2PS",
    "phone": "+33 4 78 93 08 80",
    "tourism": "museum",
    "website": "https://musee.cc.in2p3.fr",
    "wheelchair": "no",
    "wikidata": "Q130344226"
  },
  {
    "id": 12193144369,
    "type": "node",
    "latitude": 45.7616492,
    "longitude": 4.8361288,
    "contact:facebook": "ScienceExperiences",
    "contact:instagram": "science_experiences",
    "contact:tiktok": "https://tiktok.com/@science.experiences",
    "contact:twitter": "ScienceEx_Lyon",
    "description": "Musée des sciences immersif. Parcours d'une durée d'une heure et demi.",
    "fee": "yes",
    "name": "Science Expériences",
    "opening_hours": "We-Su; PH,Mo-Su",
    "start_date": "2024-10-18",
    "tourism": "museum",
    "website": "https://science-experiences.com/lyon/",
    "wheelchair": "yes"
  },
  {
    "id": 12203591732,
    "type": "node",
    "latitude": 45.7715092,
    "longitude": 4.8267454,
    "addr:city": "Lyon",
    "addr:housenumber": "13",
    "addr:postcode": "69001",
    "addr:street": "Rue de Flesselles",
    "name": "Atelier Mauvaise Pente",
    "operator": "Association Mauvaise Pente",
    "tourism": "gallery",
    "website": "https://www.instagram.com/p/C5ggHkcKyed/"
  },
  {
    "id": 12422981019,
    "type": "node",
    "latitude": 45.7690979,
    "longitude": 4.8320368,
    "contact:housenumber": "130",
    "contact:phone": "+33623843771",
    "contact:street": "Montée de la Grande Côte",
    "fee": "no",
    "name": "Catherine Mainguy",
    "opening_hours": "Tu,Fr 10:00-18:00; We,Th 10:00-19:00; Sa 14:00-19:00",
    "ref:FR:SIRET": "48280564500033",
    "tourism": "gallery",
    "website": "https://www.catherine-mainguy.fr"
  },
  {
    "id": 12458641766,
    "type": "node",
    "latitude": 45.7487469,
    "longitude": 4.840963,
    "access": "permit",
    "description": "Réserves du musée des Confluences accessible seulement sur rendez-vous aux chercheurs et étudiants.",
    "name": "Centre Louis Lortet",
    "phone": "+33 4 28 38 25 50",
    "tourism": "museum",
    "website": "https://museedesconfluences.fr/fr/etudiant-chercheur"
  },
  {
    "id": 12539796643,
    "type": "node",
    "latitude": 45.751008,
    "longitude": 4.8425661,
    "addr:city": "Lyon",
    "addr:housenumber": "60",
    "addr:postcode": "69007",
    "addr:street": "Rue Sébastien Gryphe",
    "contact:facebook": "https://www.facebook.com/boskoplyon",
    "description": "Galerie d'art proposant des expositions mais aussi des concerts et autres événements.",
    "name": "La galerie de Boskop",
    "opening_hours": "We-Fr 14:00-18:00",
    "payment:cash": "yes",
    "payment:credit_cards": "yes",
    "toilets": "yes",
    "tourism": "gallery",
    "website": "https://boskop.org"
  },
  {
    "id": 12794810298,
    "type": "node",
    "latitude": 45.7411958,
    "longitude": 4.8813131,
    "addr:housenumber": "5",
    "addr:street": "Avenue Rockefeller",
    "alt_name": "de l'Institut des Sciences Pharmaceutiques et Biologiques",
    "museum": "science",
    "name": "Droguier de Lyon",
    "opening_hours": "Sur rendez-vous",
    "operator": "Faculté de Pharmacie de Lyon",
    "operator:type": "public",
    "tourism": "museum",
    "wikidata": "Q134086129"
  }
]